<?xml version="1.0" encoding="UTF-8"?>
<gpx version="1.1" creator="Wind Cycling" xmlns="http://www.topografix.com/GPX/1/1">
 <trk>
  <name>Alges-Monsanto</name>
  <trkseg>
   <trkpt lat="38.73618" lon="-9.13685"><ele>96.6</ele></trkpt>
   <trkpt lat="38.73638" lon="-9.13649"><ele>95.0</ele></trkpt>
   <trkpt lat="38.73642" lon="-9.13642"><ele>95.0</ele></trkpt>
   <trkpt lat="38.73647" lon="-9.13621"><ele>94.8</ele></trkpt>
   <trkpt lat="38.73662" lon="-9.13592"><ele>94.4</ele></trkpt>
   <trkpt lat="38.73665" lon="-9.13548"><ele>93.0</ele></trkpt>
   <trkpt lat="38.73664" lon="-9.13510"><ele>91.0</ele></trkpt>
   <trkpt lat="38.73663" lon="-9.13470"><ele>88.0</ele></trkpt>
   <trkpt lat="38.73664" lon="-9.13432"><ele>85.6</ele></trkpt>
   <trkpt lat="38.73666" lon="-9.13411"><ele>83.2</ele></trkpt>
   <trkpt lat="38.73654" lon="-9.13386"><ele>78.2</ele></trkpt>
   <trkpt lat="38.73625" lon="-9.13388"><ele>75.8</ele></trkpt>
   <trkpt lat="38.73591" lon="-9.13392"><ele>75.2</ele></trkpt>
   <trkpt lat="38.73562" lon="-9.13395"><ele>75.0</ele></trkpt>
   <trkpt lat="38.73531" lon="-9.13400"><ele>74.4</ele></trkpt>
   <trkpt lat="38.73499" lon="-9.13405"><ele>74.0</ele></trkpt>
   <trkpt lat="38.73470" lon="-9.13407"><ele>73.8</ele></trkpt>
   <trkpt lat="38.73441" lon="-9.13410"><ele>73.0</ele></trkpt>
   <trkpt lat="38.73433" lon="-9.13411"><ele>72.8</ele></trkpt>
   <trkpt lat="38.73401" lon="-9.13420"><ele>72.6</ele></trkpt>
   <trkpt lat="38.73377" lon="-9.13425"><ele>72.4</ele></trkpt>
   <trkpt lat="38.73345" lon="-9.13422"><ele>71.8</ele></trkpt>
   <trkpt lat="38.73311" lon="-9.13424"><ele>71.2</ele></trkpt>
   <trkpt lat="38.73276" lon="-9.13428"><ele>70.6</ele></trkpt>
   <trkpt lat="38.73243" lon="-9.13430"><ele>70.4</ele></trkpt>
   <trkpt lat="38.73210" lon="-9.13432"><ele>70.2</ele></trkpt>
   <trkpt lat="38.73180" lon="-9.13433"><ele>70.0</ele></trkpt>
   <trkpt lat="38.73149" lon="-9.13437"><ele>69.8</ele></trkpt>
   <trkpt lat="38.73114" lon="-9.13446"><ele>69.6</ele></trkpt>
   <trkpt lat="38.73085" lon="-9.13448"><ele>69.4</ele></trkpt>
   <trkpt lat="38.73055" lon="-9.13452"><ele>69.2</ele></trkpt>
   <trkpt lat="38.73023" lon="-9.13458"><ele>68.8</ele></trkpt>
   <trkpt lat="38.72993" lon="-9.13464"><ele>68.6</ele></trkpt>
   <trkpt lat="38.72984" lon="-9.13466"><ele>68.4</ele></trkpt>
   <trkpt lat="38.72954" lon="-9.13466"><ele>67.6</ele></trkpt>
   <trkpt lat="38.72923" lon="-9.13469"><ele>66.4</ele></trkpt>
   <trkpt lat="38.72895" lon="-9.13471"><ele>66.0</ele></trkpt>
   <trkpt lat="38.72866" lon="-9.13472"><ele>65.4</ele></trkpt>
   <trkpt lat="38.72858" lon="-9.13472"><ele>65.2</ele></trkpt>
   <trkpt lat="38.72823" lon="-9.13476"><ele>64.6</ele></trkpt>
   <trkpt lat="38.72794" lon="-9.13479"><ele>63.8</ele></trkpt>
   <trkpt lat="38.72764" lon="-9.13482"><ele>63.0</ele></trkpt>
   <trkpt lat="38.72732" lon="-9.13486"><ele>61.8</ele></trkpt>
   <trkpt lat="38.72699" lon="-9.13488"><ele>60.6</ele></trkpt>
   <trkpt lat="38.72669" lon="-9.13492"><ele>60.0</ele></trkpt>
   <trkpt lat="38.72639" lon="-9.13495"><ele>59.2</ele></trkpt>
   <trkpt lat="38.72612" lon="-9.13496"><ele>58.4</ele></trkpt>
   <trkpt lat="38.72584" lon="-9.13499"><ele>57.2</ele></trkpt>
   <trkpt lat="38.72556" lon="-9.13504"><ele>56.4</ele></trkpt>
   <trkpt lat="38.72525" lon="-9.13506"><ele>56.0</ele></trkpt>
   <trkpt lat="38.72493" lon="-9.13511"><ele>55.4</ele></trkpt>
   <trkpt lat="38.72462" lon="-9.13515"><ele>54.4</ele></trkpt>
   <trkpt lat="38.72433" lon="-9.13520"><ele>53.4</ele></trkpt>
   <trkpt lat="38.72405" lon="-9.13523"><ele>52.6</ele></trkpt>
   <trkpt lat="38.72371" lon="-9.13526"><ele>51.6</ele></trkpt>
   <trkpt lat="38.72337" lon="-9.13529"><ele>50.4</ele></trkpt>
   <trkpt lat="38.72319" lon="-9.13531"><ele>50.0</ele></trkpt>
   <trkpt lat="38.72292" lon="-9.13537"><ele>49.4</ele></trkpt>
   <trkpt lat="38.72264" lon="-9.13542"><ele>49.0</ele></trkpt>
   <trkpt lat="38.72230" lon="-9.13542"><ele>48.0</ele></trkpt>
   <trkpt lat="38.72202" lon="-9.13543"><ele>47.2</ele></trkpt>
   <trkpt lat="38.72175" lon="-9.13544"><ele>46.4</ele></trkpt>
   <trkpt lat="38.72140" lon="-9.13546"><ele>45.4</ele></trkpt>
   <trkpt lat="38.72106" lon="-9.13548"><ele>44.8</ele></trkpt>
   <trkpt lat="38.72077" lon="-9.13549"><ele>43.2</ele></trkpt>
   <trkpt lat="38.72046" lon="-9.13552"><ele>42.8</ele></trkpt>
   <trkpt lat="38.72013" lon="-9.13554"><ele>41.6</ele></trkpt>
   <trkpt lat="38.72001" lon="-9.13554"><ele>41.0</ele></trkpt>
   <trkpt lat="38.71968" lon="-9.13559"><ele>39.4</ele></trkpt>
   <trkpt lat="38.71933" lon="-9.13563"><ele>38.8</ele></trkpt>
   <trkpt lat="38.71900" lon="-9.13567"><ele>37.6</ele></trkpt>
   <trkpt lat="38.71867" lon="-9.13569"><ele>36.8</ele></trkpt>
   <trkpt lat="38.71832" lon="-9.13573"><ele>36.0</ele></trkpt>
   <trkpt lat="38.71804" lon="-9.13576"><ele>35.4</ele></trkpt>
   <trkpt lat="38.71777" lon="-9.13579"><ele>34.6</ele></trkpt>
   <trkpt lat="38.71743" lon="-9.13583"><ele>34.0</ele></trkpt>
   <trkpt lat="38.71709" lon="-9.13587"><ele>33.8</ele></trkpt>
   <trkpt lat="38.71696" lon="-9.13584"><ele>33.8</ele></trkpt>
   <trkpt lat="38.71678" lon="-9.13562"><ele>33.2</ele></trkpt>
   <trkpt lat="38.71668" lon="-9.13561"><ele>33.2</ele></trkpt>
   <trkpt lat="38.71634" lon="-9.13575"><ele>32.8</ele></trkpt>
   <trkpt lat="38.71603" lon="-9.13589"><ele>32.4</ele></trkpt>
   <trkpt lat="38.71572" lon="-9.13603"><ele>31.4</ele></trkpt>
   <trkpt lat="38.71539" lon="-9.13616"><ele>30.6</ele></trkpt>
   <trkpt lat="38.71509" lon="-9.13632"><ele>30.2</ele></trkpt>
   <trkpt lat="38.71504" lon="-9.13634"><ele>30.0</ele></trkpt>
   <trkpt lat="38.71486" lon="-9.13629"><ele>29.6</ele></trkpt>
   <trkpt lat="38.71455" lon="-9.13642"><ele>29.0</ele></trkpt>
   <trkpt lat="38.71450" lon="-9.13643"><ele>28.8</ele></trkpt>
   <trkpt lat="38.71439" lon="-9.13681"><ele>28.4</ele></trkpt>
   <trkpt lat="38.71427" lon="-9.13722"><ele>28.0</ele></trkpt>
   <trkpt lat="38.71423" lon="-9.13730"><ele>28.0</ele></trkpt>
   <trkpt lat="38.71395" lon="-9.13749"><ele>27.6</ele></trkpt>
   <trkpt lat="38.71364" lon="-9.13740"><ele>27.8</ele></trkpt>
   <trkpt lat="38.71352" lon="-9.13742"><ele>27.6</ele></trkpt>
   <trkpt lat="38.71340" lon="-9.13757"><ele>27.6</ele></trkpt>
   <trkpt lat="38.71334" lon="-9.13780"><ele>26.6</ele></trkpt>
   <trkpt lat="38.71320" lon="-9.13784"><ele>26.2</ele></trkpt>
   <trkpt lat="38.71288" lon="-9.13776"><ele>25.8</ele></trkpt>
   <trkpt lat="38.71258" lon="-9.13767"><ele>25.8</ele></trkpt>
   <trkpt lat="38.71229" lon="-9.13754"><ele>25.6</ele></trkpt>
   <trkpt lat="38.71195" lon="-9.13744"><ele>25.0</ele></trkpt>
   <trkpt lat="38.71164" lon="-9.13728"><ele>25.0</ele></trkpt>
   <trkpt lat="38.71144" lon="-9.13719"><ele>25.0</ele></trkpt>
   <trkpt lat="38.71115" lon="-9.13711"><ele>24.8</ele></trkpt>
   <trkpt lat="38.71083" lon="-9.13698"><ele>24.6</ele></trkpt>
   <trkpt lat="38.71054" lon="-9.13691"><ele>24.0</ele></trkpt>
   <trkpt lat="38.71020" lon="-9.13677"><ele>23.8</ele></trkpt>
   <trkpt lat="38.70988" lon="-9.13668"><ele>23.2</ele></trkpt>
   <trkpt lat="38.70980" lon="-9.13666"><ele>23.2</ele></trkpt>
   <trkpt lat="38.70947" lon="-9.13649"><ele>23.0</ele></trkpt>
   <trkpt lat="38.70925" lon="-9.13637"><ele>21.2</ele></trkpt>
   <trkpt lat="38.70893" lon="-9.13640"><ele>21.2</ele></trkpt>
   <trkpt lat="38.70876" lon="-9.13645"><ele>21.0</ele></trkpt>
   <trkpt lat="38.70844" lon="-9.13625"><ele>21.0</ele></trkpt>
   <trkpt lat="38.70838" lon="-9.13629"><ele>20.8</ele></trkpt>
   <trkpt lat="38.70831" lon="-9.13673"><ele>20.4</ele></trkpt>
   <trkpt lat="38.70828" lon="-9.13707"><ele>20.0</ele></trkpt>
   <trkpt lat="38.70826" lon="-9.13715"><ele>19.8</ele></trkpt>
   <trkpt lat="38.70817" lon="-9.13754"><ele>19.8</ele></trkpt>
   <trkpt lat="38.70808" lon="-9.13795"><ele>20.0</ele></trkpt>
   <trkpt lat="38.70799" lon="-9.13835"><ele>20.4</ele></trkpt>
   <trkpt lat="38.70790" lon="-9.13872"><ele>20.6</ele></trkpt>
   <trkpt lat="38.70783" lon="-9.13911"><ele>20.8</ele></trkpt>
   <trkpt lat="38.70774" lon="-9.13949"><ele>21.2</ele></trkpt>
   <trkpt lat="38.70762" lon="-9.13986"><ele>21.6</ele></trkpt>
   <trkpt lat="38.70752" lon="-9.14024"><ele>22.0</ele></trkpt>
   <trkpt lat="38.70742" lon="-9.14064"><ele>22.2</ele></trkpt>
   <trkpt lat="38.70738" lon="-9.14078"><ele>22.2</ele></trkpt>
   <trkpt lat="38.70730" lon="-9.14116"><ele>22.0</ele></trkpt>
   <trkpt lat="38.70720" lon="-9.14154"><ele>21.8</ele></trkpt>
   <trkpt lat="38.70711" lon="-9.14191"><ele>21.6</ele></trkpt>
   <trkpt lat="38.70701" lon="-9.14233"><ele>21.4</ele></trkpt>
   <trkpt lat="38.70691" lon="-9.14276"><ele>21.4</ele></trkpt>
   <trkpt lat="38.70688" lon="-9.14289"><ele>21.4</ele></trkpt>
   <trkpt lat="38.70673" lon="-9.14326"><ele>22.4</ele></trkpt>
   <trkpt lat="38.70670" lon="-9.14333"><ele>22.4</ele></trkpt>
   <trkpt lat="38.70666" lon="-9.14358"><ele>22.6</ele></trkpt>
   <trkpt lat="38.70645" lon="-9.14388"><ele>22.0</ele></trkpt>
   <trkpt lat="38.70641" lon="-9.14404"><ele>21.4</ele></trkpt>
   <trkpt lat="38.70631" lon="-9.14412"><ele>21.2</ele></trkpt>
   <trkpt lat="38.70606" lon="-9.14390"><ele>20.6</ele></trkpt>
   <trkpt lat="38.70575" lon="-9.14392"><ele>20.4</ele></trkpt>
   <trkpt lat="38.70564" lon="-9.14392"><ele>20.4</ele></trkpt>
   <trkpt lat="38.70555" lon="-9.14397"><ele>20.4</ele></trkpt>
   <trkpt lat="38.70550" lon="-9.14408"><ele>20.2</ele></trkpt>
   <trkpt lat="38.70547" lon="-9.14452"><ele>20.0</ele></trkpt>
   <trkpt lat="38.70547" lon="-9.14497"><ele>20.2</ele></trkpt>
   <trkpt lat="38.70546" lon="-9.14513"><ele>20.2</ele></trkpt>
   <trkpt lat="38.70555" lon="-9.14555"><ele>20.6</ele></trkpt>
   <trkpt lat="38.70565" lon="-9.14593"><ele>20.6</ele></trkpt>
   <trkpt lat="38.70567" lon="-9.14634"><ele>20.4</ele></trkpt>
   <trkpt lat="38.70567" lon="-9.14676"><ele>20.4</ele></trkpt>
   <trkpt lat="38.70568" lon="-9.14721"><ele>20.4</ele></trkpt>
   <trkpt lat="38.70569" lon="-9.14756"><ele>20.4</ele></trkpt>
   <trkpt lat="38.70578" lon="-9.14794"><ele>20.4</ele></trkpt>
   <trkpt lat="38.70590" lon="-9.14831"><ele>20.4</ele></trkpt>
   <trkpt lat="38.70600" lon="-9.14870"><ele>20.6</ele></trkpt>
   <trkpt lat="38.70607" lon="-9.14892"><ele>20.6</ele></trkpt>
   <trkpt lat="38.70612" lon="-9.14934"><ele>20.6</ele></trkpt>
   <trkpt lat="38.70614" lon="-9.14944"><ele>20.6</ele></trkpt>
   <trkpt lat="38.70614" lon="-9.14985"><ele>20.6</ele></trkpt>
   <trkpt lat="38.70616" lon="-9.15029"><ele>20.8</ele></trkpt>
   <trkpt lat="38.70617" lon="-9.15070"><ele>21.0</ele></trkpt>
   <trkpt lat="38.70618" lon="-9.15113"><ele>21.0</ele></trkpt>
   <trkpt lat="38.70619" lon="-9.15155"><ele>21.0</ele></trkpt>
   <trkpt lat="38.70619" lon="-9.15196"><ele>21.0</ele></trkpt>
   <trkpt lat="38.70619" lon="-9.15237"><ele>21.0</ele></trkpt>
   <trkpt lat="38.70618" lon="-9.15279"><ele>20.8</ele></trkpt>
   <trkpt lat="38.70618" lon="-9.15319"><ele>21.2</ele></trkpt>
   <trkpt lat="38.70620" lon="-9.15358"><ele>21.4</ele></trkpt>
   <trkpt lat="38.70620" lon="-9.15388"><ele>21.2</ele></trkpt>
   <trkpt lat="38.70617" lon="-9.15433"><ele>21.0</ele></trkpt>
   <trkpt lat="38.70614" lon="-9.15461"><ele>21.0</ele></trkpt>
   <trkpt lat="38.70605" lon="-9.15496"><ele>21.0</ele></trkpt>
   <trkpt lat="38.70602" lon="-9.15536"><ele>20.8</ele></trkpt>
   <trkpt lat="38.70592" lon="-9.15575"><ele>21.0</ele></trkpt>
   <trkpt lat="38.70581" lon="-9.15614"><ele>21.0</ele></trkpt>
   <trkpt lat="38.70568" lon="-9.15651"><ele>21.0</ele></trkpt>
   <trkpt lat="38.70560" lon="-9.15673"><ele>21.2</ele></trkpt>
   <trkpt lat="38.70537" lon="-9.15707"><ele>21.4</ele></trkpt>
   <trkpt lat="38.70533" lon="-9.15713"><ele>21.4</ele></trkpt>
   <trkpt lat="38.70519" lon="-9.15749"><ele>21.6</ele></trkpt>
   <trkpt lat="38.70511" lon="-9.15769"><ele>21.8</ele></trkpt>
   <trkpt lat="38.70493" lon="-9.15786"><ele>21.8</ele></trkpt>
   <trkpt lat="38.70480" lon="-9.15811"><ele>21.8</ele></trkpt>
   <trkpt lat="38.70465" lon="-9.15845"><ele>21.6</ele></trkpt>
   <trkpt lat="38.70449" lon="-9.15880"><ele>22.2</ele></trkpt>
   <trkpt lat="38.70433" lon="-9.15916"><ele>22.4</ele></trkpt>
   <trkpt lat="38.70416" lon="-9.15953"><ele>22.0</ele></trkpt>
   <trkpt lat="38.70410" lon="-9.15968"><ele>22.0</ele></trkpt>
   <trkpt lat="38.70397" lon="-9.16006"><ele>21.8</ele></trkpt>
   <trkpt lat="38.70385" lon="-9.16046"><ele>21.8</ele></trkpt>
   <trkpt lat="38.70375" lon="-9.16086"><ele>21.8</ele></trkpt>
   <trkpt lat="38.70368" lon="-9.16128"><ele>21.8</ele></trkpt>
   <trkpt lat="38.70364" lon="-9.16144"><ele>21.8</ele></trkpt>
   <trkpt lat="38.70345" lon="-9.16180"><ele>21.6</ele></trkpt>
   <trkpt lat="38.70335" lon="-9.16220"><ele>22.0</ele></trkpt>
   <trkpt lat="38.70332" lon="-9.16228"><ele>22.0</ele></trkpt>
   <trkpt lat="38.70316" lon="-9.16244"><ele>22.2</ele></trkpt>
   <trkpt lat="38.70295" lon="-9.16211"><ele>22.6</ele></trkpt>
   <trkpt lat="38.70282" lon="-9.16207"><ele>22.6</ele></trkpt>
   <trkpt lat="38.70278" lon="-9.16215"><ele>22.6</ele></trkpt>
   <trkpt lat="38.70286" lon="-9.16254"><ele>22.2</ele></trkpt>
   <trkpt lat="38.70292" lon="-9.16292"><ele>21.8</ele></trkpt>
   <trkpt lat="38.70293" lon="-9.16300"><ele>21.8</ele></trkpt>
   <trkpt lat="38.70303" lon="-9.16338"><ele>21.6</ele></trkpt>
   <trkpt lat="38.70312" lon="-9.16376"><ele>21.6</ele></trkpt>
   <trkpt lat="38.70316" lon="-9.16391"><ele>21.8</ele></trkpt>
   <trkpt lat="38.70316" lon="-9.16434"><ele>22.0</ele></trkpt>
   <trkpt lat="38.70316" lon="-9.16478"><ele>22.2</ele></trkpt>
   <trkpt lat="38.70316" lon="-9.16521"><ele>22.2</ele></trkpt>
   <trkpt lat="38.70315" lon="-9.16539"><ele>22.2</ele></trkpt>
   <trkpt lat="38.70308" lon="-9.16581"><ele>22.0</ele></trkpt>
   <trkpt lat="38.70301" lon="-9.16622"><ele>22.0</ele></trkpt>
   <trkpt lat="38.70293" lon="-9.16662"><ele>22.0</ele></trkpt>
   <trkpt lat="38.70287" lon="-9.16700"><ele>22.2</ele></trkpt>
   <trkpt lat="38.70280" lon="-9.16738"><ele>22.2</ele></trkpt>
   <trkpt lat="38.70273" lon="-9.16777"><ele>22.2</ele></trkpt>
   <trkpt lat="38.70265" lon="-9.16817"><ele>22.0</ele></trkpt>
   <trkpt lat="38.70259" lon="-9.16859"><ele>22.2</ele></trkpt>
   <trkpt lat="38.70251" lon="-9.16901"><ele>22.0</ele></trkpt>
   <trkpt lat="38.70243" lon="-9.16944"><ele>21.6</ele></trkpt>
   <trkpt lat="38.70236" lon="-9.16986"><ele>22.0</ele></trkpt>
   <trkpt lat="38.70228" lon="-9.17029"><ele>22.4</ele></trkpt>
   <trkpt lat="38.70221" lon="-9.17071"><ele>23.0</ele></trkpt>
   <trkpt lat="38.70212" lon="-9.17114"><ele>22.8</ele></trkpt>
   <trkpt lat="38.70204" lon="-9.17156"><ele>22.6</ele></trkpt>
   <trkpt lat="38.70197" lon="-9.17197"><ele>22.8</ele></trkpt>
   <trkpt lat="38.70190" lon="-9.17236"><ele>22.6</ele></trkpt>
   <trkpt lat="38.70183" lon="-9.17274"><ele>22.4</ele></trkpt>
   <trkpt lat="38.70176" lon="-9.17313"><ele>22.8</ele></trkpt>
   <trkpt lat="38.70169" lon="-9.17353"><ele>22.4</ele></trkpt>
   <trkpt lat="38.70162" lon="-9.17393"><ele>22.6</ele></trkpt>
   <trkpt lat="38.70155" lon="-9.17432"><ele>22.6</ele></trkpt>
   <trkpt lat="38.70150" lon="-9.17457"><ele>22.2</ele></trkpt>
   <trkpt lat="38.70140" lon="-9.17461"><ele>22.2</ele></trkpt>
   <trkpt lat="38.70108" lon="-9.17450"><ele>22.0</ele></trkpt>
   <trkpt lat="38.70078" lon="-9.17440"><ele>22.2</ele></trkpt>
   <trkpt lat="38.70073" lon="-9.17439"><ele>22.4</ele></trkpt>
   <trkpt lat="38.70049" lon="-9.17454"><ele>22.4</ele></trkpt>
   <trkpt lat="38.70037" lon="-9.17494"><ele>22.2</ele></trkpt>
   <trkpt lat="38.70031" lon="-9.17510"><ele>21.4</ele></trkpt>
   <trkpt lat="38.70041" lon="-9.17552"><ele>21.8</ele></trkpt>
   <trkpt lat="38.70042" lon="-9.17558"><ele>21.8</ele></trkpt>
   <trkpt lat="38.70037" lon="-9.17588"><ele>21.8</ele></trkpt>
   <trkpt lat="38.70043" lon="-9.17618"><ele>21.8</ele></trkpt>
   <trkpt lat="38.70042" lon="-9.17636"><ele>21.6</ele></trkpt>
   <trkpt lat="38.70028" lon="-9.17677"><ele>21.6</ele></trkpt>
   <trkpt lat="38.70014" lon="-9.17715"><ele>21.6</ele></trkpt>
   <trkpt lat="38.70002" lon="-9.17754"><ele>21.8</ele></trkpt>
   <trkpt lat="38.69988" lon="-9.17793"><ele>21.6</ele></trkpt>
   <trkpt lat="38.69974" lon="-9.17833"><ele>21.4</ele></trkpt>
   <trkpt lat="38.69961" lon="-9.17873"><ele>21.6</ele></trkpt>
   <trkpt lat="38.69959" lon="-9.17881"><ele>21.2</ele></trkpt>
   <trkpt lat="38.69953" lon="-9.17890"><ele>21.2</ele></trkpt>
   <trkpt lat="38.69927" lon="-9.17890"><ele>21.0</ele></trkpt>
   <trkpt lat="38.69892" lon="-9.17882"><ele>21.2</ele></trkpt>
   <trkpt lat="38.69866" lon="-9.17874"><ele>21.4</ele></trkpt>
   <trkpt lat="38.69858" lon="-9.17884"><ele>21.6</ele></trkpt>
   <trkpt lat="38.69847" lon="-9.17927"><ele>21.6</ele></trkpt>
   <trkpt lat="38.69834" lon="-9.17932"><ele>21.6</ele></trkpt>
   <trkpt lat="38.69828" lon="-9.17946"><ele>21.6</ele></trkpt>
   <trkpt lat="38.69822" lon="-9.17985"><ele>21.6</ele></trkpt>
   <trkpt lat="38.69814" lon="-9.18029"><ele>21.2</ele></trkpt>
   <trkpt lat="38.69808" lon="-9.18066"><ele>21.2</ele></trkpt>
   <trkpt lat="38.69801" lon="-9.18105"><ele>21.2</ele></trkpt>
   <trkpt lat="38.69794" lon="-9.18148"><ele>21.2</ele></trkpt>
   <trkpt lat="38.69790" lon="-9.18179"><ele>21.4</ele></trkpt>
   <trkpt lat="38.69781" lon="-9.18222"><ele>21.6</ele></trkpt>
   <trkpt lat="38.69773" lon="-9.18266"><ele>21.6</ele></trkpt>
   <trkpt lat="38.69764" lon="-9.18306"><ele>21.4</ele></trkpt>
   <trkpt lat="38.69762" lon="-9.18315"><ele>21.4</ele></trkpt>
   <trkpt lat="38.69756" lon="-9.18357"><ele>21.4</ele></trkpt>
   <trkpt lat="38.69748" lon="-9.18401"><ele>21.4</ele></trkpt>
   <trkpt lat="38.69740" lon="-9.18445"><ele>21.8</ele></trkpt>
   <trkpt lat="38.69734" lon="-9.18481"><ele>21.6</ele></trkpt>
   <trkpt lat="38.69725" lon="-9.18525"><ele>21.4</ele></trkpt>
   <trkpt lat="38.69718" lon="-9.18569"><ele>21.6</ele></trkpt>
   <trkpt lat="38.69710" lon="-9.18613"><ele>21.6</ele></trkpt>
   <trkpt lat="38.69702" lon="-9.18657"><ele>21.6</ele></trkpt>
   <trkpt lat="38.69694" lon="-9.18701"><ele>21.6</ele></trkpt>
   <trkpt lat="38.69685" lon="-9.18744"><ele>21.8</ele></trkpt>
   <trkpt lat="38.69678" lon="-9.18787"><ele>21.8</ele></trkpt>
   <trkpt lat="38.69671" lon="-9.18828"><ele>21.8</ele></trkpt>
   <trkpt lat="38.69664" lon="-9.18868"><ele>21.2</ele></trkpt>
   <trkpt lat="38.69656" lon="-9.18908"><ele>21.6</ele></trkpt>
   <trkpt lat="38.69653" lon="-9.18930"><ele>21.6</ele></trkpt>
   <trkpt lat="38.69645" lon="-9.18968"><ele>22.0</ele></trkpt>
   <trkpt lat="38.69638" lon="-9.19007"><ele>21.8</ele></trkpt>
   <trkpt lat="38.69624" lon="-9.19043"><ele>21.2</ele></trkpt>
   <trkpt lat="38.69617" lon="-9.19086"><ele>20.8</ele></trkpt>
   <trkpt lat="38.69609" lon="-9.19128"><ele>20.8</ele></trkpt>
   <trkpt lat="38.69601" lon="-9.19172"><ele>20.6</ele></trkpt>
   <trkpt lat="38.69593" lon="-9.19210"><ele>20.8</ele></trkpt>
   <trkpt lat="38.69586" lon="-9.19252"><ele>20.8</ele></trkpt>
   <trkpt lat="38.69579" lon="-9.19293"><ele>21.0</ele></trkpt>
   <trkpt lat="38.69571" lon="-9.19337"><ele>20.6</ele></trkpt>
   <trkpt lat="38.69569" lon="-9.19346"><ele>20.4</ele></trkpt>
   <trkpt lat="38.69566" lon="-9.19388"><ele>21.0</ele></trkpt>
   <trkpt lat="38.69559" lon="-9.19430"><ele>21.0</ele></trkpt>
   <trkpt lat="38.69553" lon="-9.19469"><ele>21.4</ele></trkpt>
   <trkpt lat="38.69547" lon="-9.19513"><ele>21.4</ele></trkpt>
   <trkpt lat="38.69544" lon="-9.19536"><ele>21.0</ele></trkpt>
   <trkpt lat="38.69535" lon="-9.19576"><ele>21.4</ele></trkpt>
   <trkpt lat="38.69524" lon="-9.19618"><ele>21.6</ele></trkpt>
   <trkpt lat="38.69515" lon="-9.19657"><ele>21.8</ele></trkpt>
   <trkpt lat="38.69508" lon="-9.19695"><ele>21.4</ele></trkpt>
   <trkpt lat="38.69503" lon="-9.19717"><ele>21.8</ele></trkpt>
   <trkpt lat="38.69499" lon="-9.19758"><ele>21.8</ele></trkpt>
   <trkpt lat="38.69501" lon="-9.19772"><ele>21.8</ele></trkpt>
   <trkpt lat="38.69517" lon="-9.19804"><ele>21.8</ele></trkpt>
   <trkpt lat="38.69513" lon="-9.19847"><ele>21.6</ele></trkpt>
   <trkpt lat="38.69507" lon="-9.19891"><ele>21.6</ele></trkpt>
   <trkpt lat="38.69497" lon="-9.19916"><ele>22.0</ele></trkpt>
   <trkpt lat="38.69471" lon="-9.19932"><ele>22.0</ele></trkpt>
   <trkpt lat="38.69465" lon="-9.19944"><ele>21.8</ele></trkpt>
   <trkpt lat="38.69459" lon="-9.19981"><ele>21.6</ele></trkpt>
   <trkpt lat="38.69451" lon="-9.20020"><ele>21.6</ele></trkpt>
   <trkpt lat="38.69442" lon="-9.20064"><ele>21.6</ele></trkpt>
   <trkpt lat="38.69434" lon="-9.20105"><ele>21.4</ele></trkpt>
   <trkpt lat="38.69429" lon="-9.20144"><ele>21.0</ele></trkpt>
   <trkpt lat="38.69422" lon="-9.20186"><ele>21.2</ele></trkpt>
   <trkpt lat="38.69413" lon="-9.20226"><ele>21.2</ele></trkpt>
   <trkpt lat="38.69407" lon="-9.20258"><ele>21.4</ele></trkpt>
   <trkpt lat="38.69412" lon="-9.20274"><ele>21.4</ele></trkpt>
   <trkpt lat="38.69444" lon="-9.20287"><ele>22.0</ele></trkpt>
   <trkpt lat="38.69463" lon="-9.20294"><ele>22.2</ele></trkpt>
   <trkpt lat="38.69497" lon="-9.20300"><ele>22.2</ele></trkpt>
   <trkpt lat="38.69500" lon="-9.20301"><ele>22.2</ele></trkpt>
   <trkpt lat="38.69505" lon="-9.20307"><ele>22.2</ele></trkpt>
   <trkpt lat="38.69501" lon="-9.20348"><ele>22.0</ele></trkpt>
   <trkpt lat="38.69496" lon="-9.20383"><ele>21.6</ele></trkpt>
   <trkpt lat="38.69496" lon="-9.20425"><ele>21.4</ele></trkpt>
   <trkpt lat="38.69482" lon="-9.20455"><ele>21.6</ele></trkpt>
   <trkpt lat="38.69476" lon="-9.20498"><ele>21.8</ele></trkpt>
   <trkpt lat="38.69468" lon="-9.20540"><ele>21.8</ele></trkpt>
   <trkpt lat="38.69461" lon="-9.20582"><ele>21.6</ele></trkpt>
   <trkpt lat="38.69451" lon="-9.20624"><ele>22.2</ele></trkpt>
   <trkpt lat="38.69419" lon="-9.20620"><ele>22.2</ele></trkpt>
   <trkpt lat="38.69386" lon="-9.20617"><ele>22.6</ele></trkpt>
   <trkpt lat="38.69371" lon="-9.20614"><ele>22.6</ele></trkpt>
   <trkpt lat="38.69357" lon="-9.20614"><ele>22.8</ele></trkpt>
   <trkpt lat="38.69346" lon="-9.20624"><ele>23.0</ele></trkpt>
   <trkpt lat="38.69336" lon="-9.20661"><ele>22.8</ele></trkpt>
   <trkpt lat="38.69334" lon="-9.20668"><ele>22.8</ele></trkpt>
   <trkpt lat="38.69327" lon="-9.20708"><ele>22.2</ele></trkpt>
   <trkpt lat="38.69319" lon="-9.20752"><ele>21.6</ele></trkpt>
   <trkpt lat="38.69311" lon="-9.20795"><ele>21.6</ele></trkpt>
   <trkpt lat="38.69304" lon="-9.20839"><ele>21.4</ele></trkpt>
   <trkpt lat="38.69296" lon="-9.20882"><ele>21.6</ele></trkpt>
   <trkpt lat="38.69295" lon="-9.20889"><ele>21.6</ele></trkpt>
   <trkpt lat="38.69288" lon="-9.20908"><ele>21.6</ele></trkpt>
   <trkpt lat="38.69283" lon="-9.20950"><ele>21.6</ele></trkpt>
   <trkpt lat="38.69283" lon="-9.20970"><ele>21.6</ele></trkpt>
   <trkpt lat="38.69272" lon="-9.21007"><ele>21.6</ele></trkpt>
   <trkpt lat="38.69266" lon="-9.21043"><ele>21.4</ele></trkpt>
   <trkpt lat="38.69278" lon="-9.21071"><ele>21.4</ele></trkpt>
   <trkpt lat="38.69307" lon="-9.21086"><ele>22.0</ele></trkpt>
   <trkpt lat="38.69340" lon="-9.21093"><ele>21.8</ele></trkpt>
   <trkpt lat="38.69371" lon="-9.21104"><ele>21.6</ele></trkpt>
   <trkpt lat="38.69375" lon="-9.21105"><ele>21.8</ele></trkpt>
   <trkpt lat="38.69380" lon="-9.21120"><ele>22.0</ele></trkpt>
   <trkpt lat="38.69377" lon="-9.21162"><ele>21.8</ele></trkpt>
   <trkpt lat="38.69374" lon="-9.21204"><ele>21.6</ele></trkpt>
   <trkpt lat="38.69374" lon="-9.21246"><ele>21.2</ele></trkpt>
   <trkpt lat="38.69372" lon="-9.21288"><ele>21.2</ele></trkpt>
   <trkpt lat="38.69355" lon="-9.21324"><ele>21.8</ele></trkpt>
   <trkpt lat="38.69353" lon="-9.21328"><ele>21.6</ele></trkpt>
   <trkpt lat="38.69351" lon="-9.21350"><ele>21.4</ele></trkpt>
   <trkpt lat="38.69352" lon="-9.21370"><ele>21.6</ele></trkpt>
   <trkpt lat="38.69363" lon="-9.21390"><ele>21.8</ele></trkpt>
   <trkpt lat="38.69360" lon="-9.21400"><ele>21.8</ele></trkpt>
   <trkpt lat="38.69343" lon="-9.21407"><ele>21.8</ele></trkpt>
   <trkpt lat="38.69339" lon="-9.21416"><ele>22.0</ele></trkpt>
   <trkpt lat="38.69345" lon="-9.21456"><ele>22.2</ele></trkpt>
   <trkpt lat="38.69347" lon="-9.21492"><ele>22.4</ele></trkpt>
   <trkpt lat="38.69343" lon="-9.21536"><ele>22.4</ele></trkpt>
   <trkpt lat="38.69338" lon="-9.21576"><ele>22.4</ele></trkpt>
   <trkpt lat="38.69335" lon="-9.21591"><ele>22.2</ele></trkpt>
   <trkpt lat="38.69334" lon="-9.21637"><ele>22.2</ele></trkpt>
   <trkpt lat="38.69319" lon="-9.21678"><ele>22.6</ele></trkpt>
   <trkpt lat="38.69309" lon="-9.21700"><ele>22.6</ele></trkpt>
   <trkpt lat="38.69312" lon="-9.21728"><ele>22.6</ele></trkpt>
   <trkpt lat="38.69325" lon="-9.21769"><ele>22.8</ele></trkpt>
   <trkpt lat="38.69328" lon="-9.21782"><ele>22.6</ele></trkpt>
   <trkpt lat="38.69325" lon="-9.21812"><ele>22.2</ele></trkpt>
   <trkpt lat="38.69340" lon="-9.21847"><ele>22.2</ele></trkpt>
   <trkpt lat="38.69348" lon="-9.21885"><ele>22.2</ele></trkpt>
   <trkpt lat="38.69360" lon="-9.21925"><ele>22.0</ele></trkpt>
   <trkpt lat="38.69373" lon="-9.21966"><ele>22.4</ele></trkpt>
   <trkpt lat="38.69386" lon="-9.22008"><ele>22.6</ele></trkpt>
   <trkpt lat="38.69399" lon="-9.22049"><ele>22.4</ele></trkpt>
   <trkpt lat="38.69408" lon="-9.22073"><ele>22.2</ele></trkpt>
   <trkpt lat="38.69426" lon="-9.22111"><ele>22.2</ele></trkpt>
   <trkpt lat="38.69446" lon="-9.22148"><ele>22.6</ele></trkpt>
   <trkpt lat="38.69467" lon="-9.22184"><ele>24.2</ele></trkpt>
   <trkpt lat="38.69487" lon="-9.22220"><ele>23.4</ele></trkpt>
   <trkpt lat="38.69505" lon="-9.22255"><ele>22.0</ele></trkpt>
   <trkpt lat="38.69523" lon="-9.22288"><ele>22.4</ele></trkpt>
   <trkpt lat="38.69543" lon="-9.22322"><ele>22.8</ele></trkpt>
   <trkpt lat="38.69561" lon="-9.22355"><ele>23.0</ele></trkpt>
   <trkpt lat="38.69570" lon="-9.22374"><ele>23.2</ele></trkpt>
   <trkpt lat="38.69568" lon="-9.22387"><ele>23.0</ele></trkpt>
   <trkpt lat="38.69551" lon="-9.22422"><ele>22.2</ele></trkpt>
   <trkpt lat="38.69533" lon="-9.22437"><ele>22.2</ele></trkpt>
   <trkpt lat="38.69534" lon="-9.22453"><ele>22.0</ele></trkpt>
   <trkpt lat="38.69553" lon="-9.22487"><ele>21.6</ele></trkpt>
   <trkpt lat="38.69573" lon="-9.22523"><ele>22.4</ele></trkpt>
   <trkpt lat="38.69591" lon="-9.22555"><ele>22.6</ele></trkpt>
   <trkpt lat="38.69609" lon="-9.22587"><ele>22.2</ele></trkpt>
   <trkpt lat="38.69628" lon="-9.22620"><ele>22.2</ele></trkpt>
   <trkpt lat="38.69646" lon="-9.22654"><ele>21.8</ele></trkpt>
   <trkpt lat="38.69665" lon="-9.22688"><ele>22.2</ele></trkpt>
   <trkpt lat="38.69677" lon="-9.22708"><ele>22.2</ele></trkpt>
   <trkpt lat="38.69695" lon="-9.22743"><ele>22.6</ele></trkpt>
   <trkpt lat="38.69709" lon="-9.22778"><ele>22.4</ele></trkpt>
   <trkpt lat="38.69711" lon="-9.22785"><ele>22.4</ele></trkpt>
   <trkpt lat="38.69704" lon="-9.22822"><ele>22.4</ele></trkpt>
   <trkpt lat="38.69703" lon="-9.22830"><ele>22.4</ele></trkpt>
   <trkpt lat="38.69708" lon="-9.22867"><ele>22.6</ele></trkpt>
   <trkpt lat="38.69698" lon="-9.22885"><ele>22.8</ele></trkpt>
   <trkpt lat="38.69672" lon="-9.22906"><ele>22.6</ele></trkpt>
   <trkpt lat="38.69642" lon="-9.22924"><ele>22.6</ele></trkpt>
   <trkpt lat="38.69611" lon="-9.22939"><ele>22.8</ele></trkpt>
   <trkpt lat="38.69581" lon="-9.22956"><ele>22.4</ele></trkpt>
   <trkpt lat="38.69569" lon="-9.22968"><ele>22.4</ele></trkpt>
   <trkpt lat="38.69564" lon="-9.22963"><ele>22.4</ele></trkpt>
   <trkpt lat="38.69593" lon="-9.22947"><ele>22.4</ele></trkpt>
   <trkpt lat="38.69626" lon="-9.22930"><ele>22.6</ele></trkpt>
   <trkpt lat="38.69653" lon="-9.22919"><ele>22.6</ele></trkpt>
   <trkpt lat="38.69663" lon="-9.22929"><ele>22.6</ele></trkpt>
   <trkpt lat="38.69675" lon="-9.22971"><ele>22.6</ele></trkpt>
   <trkpt lat="38.69679" lon="-9.22986"><ele>22.6</ele></trkpt>
   <trkpt lat="38.69669" lon="-9.23005"><ele>22.8</ele></trkpt>
   <trkpt lat="38.69638" lon="-9.23020"><ele>23.4</ele></trkpt>
   <trkpt lat="38.69606" lon="-9.23037"><ele>23.4</ele></trkpt>
   <trkpt lat="38.69601" lon="-9.23039"><ele>23.4</ele></trkpt>
   <trkpt lat="38.69590" lon="-9.23058"><ele>23.4</ele></trkpt>
   <trkpt lat="38.69590" lon="-9.23076"><ele>23.2</ele></trkpt>
   <trkpt lat="38.69610" lon="-9.23114"><ele>22.2</ele></trkpt>
   <trkpt lat="38.69623" lon="-9.23135"><ele>22.2</ele></trkpt>
   <trkpt lat="38.69646" lon="-9.23156"><ele>22.2</ele></trkpt>
   <trkpt lat="38.69668" lon="-9.23163"><ele>22.4</ele></trkpt>
   <trkpt lat="38.69702" lon="-9.23164"><ele>22.8</ele></trkpt>
   <trkpt lat="38.69737" lon="-9.23164"><ele>22.8</ele></trkpt>
   <trkpt lat="38.69767" lon="-9.23164"><ele>23.0</ele></trkpt>
   <trkpt lat="38.69801" lon="-9.23165"><ele>23.2</ele></trkpt>
   <trkpt lat="38.69836" lon="-9.23164"><ele>23.2</ele></trkpt>
   <trkpt lat="38.69845" lon="-9.23167"><ele>23.4</ele></trkpt>
   <trkpt lat="38.69849" lon="-9.23180"><ele>23.6</ele></trkpt>
   <trkpt lat="38.69849" lon="-9.23223"><ele>23.8</ele></trkpt>
   <trkpt lat="38.69850" lon="-9.23267"><ele>23.8</ele></trkpt>
   <trkpt lat="38.69850" lon="-9.23310"><ele>24.0</ele></trkpt>
   <trkpt lat="38.69851" lon="-9.23355"><ele>24.0</ele></trkpt>
   <trkpt lat="38.69852" lon="-9.23394"><ele>24.0</ele></trkpt>
   <trkpt lat="38.69852" lon="-9.23433"><ele>24.0</ele></trkpt>
   <trkpt lat="38.69852" lon="-9.23449"><ele>24.0</ele></trkpt>
   <trkpt lat="38.69856" lon="-9.23487"><ele>24.0</ele></trkpt>
   <trkpt lat="38.69859" lon="-9.23531"><ele>24.2</ele></trkpt>
   <trkpt lat="38.69862" lon="-9.23574"><ele>24.2</ele></trkpt>
   <trkpt lat="38.69864" lon="-9.23616"><ele>24.2</ele></trkpt>
   <trkpt lat="38.69868" lon="-9.23657"><ele>24.4</ele></trkpt>
   <trkpt lat="38.69871" lon="-9.23697"><ele>24.4</ele></trkpt>
   <trkpt lat="38.69874" lon="-9.23739"><ele>24.2</ele></trkpt>
   <trkpt lat="38.69877" lon="-9.23780"><ele>24.2</ele></trkpt>
   <trkpt lat="38.69880" lon="-9.23823"><ele>24.2</ele></trkpt>
   <trkpt lat="38.69882" lon="-9.23867"><ele>24.0</ele></trkpt>
   <trkpt lat="38.69885" lon="-9.23911"><ele>24.2</ele></trkpt>
   <trkpt lat="38.69888" lon="-9.23940"><ele>24.2</ele></trkpt>
   <trkpt lat="38.69888" lon="-9.23986"><ele>24.2</ele></trkpt>
   <trkpt lat="38.69891" lon="-9.24027"><ele>24.2</ele></trkpt>
   <trkpt lat="38.69893" lon="-9.24069"><ele>24.2</ele></trkpt>
   <trkpt lat="38.69896" lon="-9.24113"><ele>24.2</ele></trkpt>
   <trkpt lat="38.69898" lon="-9.24157"><ele>23.8</ele></trkpt>
   <trkpt lat="38.69898" lon="-9.24164"><ele>23.6</ele></trkpt>
   <trkpt lat="38.69902" lon="-9.24204"><ele>23.2</ele></trkpt>
   <trkpt lat="38.69903" lon="-9.24225"><ele>23.4</ele></trkpt>
   <trkpt lat="38.69911" lon="-9.24264"><ele>23.6</ele></trkpt>
   <trkpt lat="38.69913" lon="-9.24277"><ele>23.6</ele></trkpt>
   <trkpt lat="38.69915" lon="-9.24319"><ele>23.6</ele></trkpt>
   <trkpt lat="38.69917" lon="-9.24359"><ele>23.4</ele></trkpt>
   <trkpt lat="38.69918" lon="-9.24405"><ele>23.2</ele></trkpt>
   <trkpt lat="38.69923" lon="-9.24446"><ele>23.2</ele></trkpt>
   <trkpt lat="38.69926" lon="-9.24491"><ele>23.2</ele></trkpt>
   <trkpt lat="38.69927" lon="-9.24534"><ele>23.0</ele></trkpt>
   <trkpt lat="38.69931" lon="-9.24579"><ele>23.0</ele></trkpt>
   <trkpt lat="38.69932" lon="-9.24618"><ele>23.2</ele></trkpt>
   <trkpt lat="38.69934" lon="-9.24656"><ele>23.2</ele></trkpt>
   <trkpt lat="38.69937" lon="-9.24695"><ele>23.2</ele></trkpt>
   <trkpt lat="38.69940" lon="-9.24735"><ele>23.0</ele></trkpt>
   <trkpt lat="38.69943" lon="-9.24775"><ele>23.2</ele></trkpt>
   <trkpt lat="38.69945" lon="-9.24814"><ele>23.2</ele></trkpt>
   <trkpt lat="38.69948" lon="-9.24836"><ele>23.2</ele></trkpt>
   <trkpt lat="38.69949" lon="-9.24875"><ele>23.2</ele></trkpt>
   <trkpt lat="38.69952" lon="-9.24920"><ele>23.2</ele></trkpt>
   <trkpt lat="38.69954" lon="-9.24963"><ele>23.2</ele></trkpt>
   <trkpt lat="38.69955" lon="-9.25006"><ele>23.0</ele></trkpt>
   <trkpt lat="38.69955" lon="-9.25051"><ele>22.8</ele></trkpt>
   <trkpt lat="38.69968" lon="-9.25077"><ele>22.4</ele></trkpt>
   <trkpt lat="38.69974" lon="-9.25067"><ele>22.2</ele></trkpt>
   <trkpt lat="38.69974" lon="-9.25045"><ele>23.2</ele></trkpt>
   <trkpt lat="38.69971" lon="-9.25043"><ele>24.0</ele></trkpt>
   <trkpt lat="38.69977" lon="-9.25086"><ele>25.0</ele></trkpt>
   <trkpt lat="38.69982" lon="-9.25128"><ele>25.2</ele></trkpt>
   <trkpt lat="38.69985" lon="-9.25154"><ele>25.2</ele></trkpt>
   <trkpt lat="38.69995" lon="-9.25174"><ele>25.0</ele></trkpt>
   <trkpt lat="38.70002" lon="-9.25216"><ele>25.4</ele></trkpt>
   <trkpt lat="38.69999" lon="-9.25249"><ele>25.4</ele></trkpt>
   <trkpt lat="38.70003" lon="-9.25290"><ele>24.8</ele></trkpt>
   <trkpt lat="38.70005" lon="-9.25332"><ele>24.6</ele></trkpt>
   <trkpt lat="38.70008" lon="-9.25354"><ele>24.2</ele></trkpt>
   <trkpt lat="38.70015" lon="-9.25365"><ele>23.6</ele></trkpt>
   <trkpt lat="38.70025" lon="-9.25368"><ele>23.2</ele></trkpt>
   <trkpt lat="38.70058" lon="-9.25363"><ele>22.6</ele></trkpt>
   <trkpt lat="38.70090" lon="-9.25360"><ele>22.6</ele></trkpt>
   <trkpt lat="38.70125" lon="-9.25355"><ele>23.4</ele></trkpt>
   <trkpt lat="38.70160" lon="-9.25352"><ele>24.2</ele></trkpt>
   <trkpt lat="38.70172" lon="-9.25333"><ele>25.6</ele></trkpt>
   <trkpt lat="38.70204" lon="-9.25342"><ele>25.8</ele></trkpt>
   <trkpt lat="38.70207" lon="-9.25344"><ele>26.0</ele></trkpt>
   <trkpt lat="38.70220" lon="-9.25376"><ele>26.0</ele></trkpt>
   <trkpt lat="38.70226" lon="-9.25419"><ele>26.4</ele></trkpt>
   <trkpt lat="38.70231" lon="-9.25460"><ele>26.2</ele></trkpt>
   <trkpt lat="38.70235" lon="-9.25500"><ele>26.2</ele></trkpt>
   <trkpt lat="38.70241" lon="-9.25540"><ele>26.6</ele></trkpt>
   <trkpt lat="38.70253" lon="-9.25577"><ele>26.8</ele></trkpt>
   <trkpt lat="38.70279" lon="-9.25604"><ele>27.4</ele></trkpt>
   <trkpt lat="38.70294" lon="-9.25633"><ele>28.2</ele></trkpt>
   <trkpt lat="38.70325" lon="-9.25651"><ele>28.8</ele></trkpt>
   <trkpt lat="38.70329" lon="-9.25653"><ele>29.2</ele></trkpt>
   <trkpt lat="38.70360" lon="-9.25666"><ele>30.6</ele></trkpt>
   <trkpt lat="38.70393" lon="-9.25678"><ele>30.0</ele></trkpt>
   <trkpt lat="38.70398" lon="-9.25680"><ele>30.0</ele></trkpt>
   <trkpt lat="38.70429" lon="-9.25689"><ele>30.0</ele></trkpt>
   <trkpt lat="38.70463" lon="-9.25698"><ele>30.2</ele></trkpt>
   <trkpt lat="38.70493" lon="-9.25708"><ele>30.4</ele></trkpt>
   <trkpt lat="38.70527" lon="-9.25719"><ele>30.8</ele></trkpt>
   <trkpt lat="38.70561" lon="-9.25729"><ele>31.4</ele></trkpt>
   <trkpt lat="38.70593" lon="-9.25738"><ele>32.2</ele></trkpt>
   <trkpt lat="38.70627" lon="-9.25750"><ele>34.8</ele></trkpt>
   <trkpt lat="38.70661" lon="-9.25758"><ele>37.0</ele></trkpt>
   <trkpt lat="38.70694" lon="-9.25768"><ele>39.4</ele></trkpt>
   <trkpt lat="38.70727" lon="-9.25779"><ele>41.6</ele></trkpt>
   <trkpt lat="38.70731" lon="-9.25780"><ele>41.6</ele></trkpt>
   <trkpt lat="38.70763" lon="-9.25798"><ele>44.0</ele></trkpt>
   <trkpt lat="38.70793" lon="-9.25819"><ele>46.6</ele></trkpt>
   <trkpt lat="38.70819" lon="-9.25845"><ele>49.4</ele></trkpt>
   <trkpt lat="38.70843" lon="-9.25872"><ele>51.4</ele></trkpt>
   <trkpt lat="38.70877" lon="-9.25875"><ele>53.0</ele></trkpt>
   <trkpt lat="38.70909" lon="-9.25878"><ele>53.0</ele></trkpt>
   <trkpt lat="38.70916" lon="-9.25886"><ele>53.0</ele></trkpt>
   <trkpt lat="38.70917" lon="-9.25900"><ele>52.8</ele></trkpt>
   <trkpt lat="38.70907" lon="-9.25917"><ele>52.8</ele></trkpt>
   <trkpt lat="38.70906" lon="-9.25959"><ele>54.2</ele></trkpt>
   <trkpt lat="38.70895" lon="-9.25976"><ele>54.8</ele></trkpt>
   <trkpt lat="38.70879" lon="-9.25978"><ele>56.2</ele></trkpt>
   <trkpt lat="38.70863" lon="-9.25963"><ele>56.2</ele></trkpt>
   <trkpt lat="38.70860" lon="-9.25924"><ele>55.0</ele></trkpt>
   <trkpt lat="38.70851" lon="-9.25908"><ele>54.8</ele></trkpt>
   <trkpt lat="38.70848" lon="-9.25892"><ele>54.4</ele></trkpt>
   <trkpt lat="38.70853" lon="-9.25881"><ele>53.4</ele></trkpt>
   <trkpt lat="38.70867" lon="-9.25877"><ele>52.8</ele></trkpt>
   <trkpt lat="38.70902" lon="-9.25877"><ele>53.2</ele></trkpt>
   <trkpt lat="38.70936" lon="-9.25878"><ele>53.6</ele></trkpt>
   <trkpt lat="38.70969" lon="-9.25880"><ele>52.6</ele></trkpt>
   <trkpt lat="38.71004" lon="-9.25888"><ele>52.2</ele></trkpt>
   <trkpt lat="38.71013" lon="-9.25889"><ele>52.2</ele></trkpt>
   <trkpt lat="38.71044" lon="-9.25899"><ele>51.8</ele></trkpt>
   <trkpt lat="38.71078" lon="-9.25910"><ele>51.6</ele></trkpt>
   <trkpt lat="38.71108" lon="-9.25919"><ele>51.6</ele></trkpt>
   <trkpt lat="38.71141" lon="-9.25928"><ele>51.6</ele></trkpt>
   <trkpt lat="38.71176" lon="-9.25937"><ele>52.0</ele></trkpt>
   <trkpt lat="38.71206" lon="-9.25948"><ele>52.8</ele></trkpt>
   <trkpt lat="38.71238" lon="-9.25948"><ele>54.6</ele></trkpt>
   <trkpt lat="38.71255" lon="-9.25946"><ele>55.0</ele></trkpt>
   <trkpt lat="38.71279" lon="-9.25930"><ele>55.0</ele></trkpt>
   <trkpt lat="38.71304" lon="-9.25900"><ele>54.4</ele></trkpt>
   <trkpt lat="38.71309" lon="-9.25892"><ele>54.2</ele></trkpt>
   <trkpt lat="38.71322" lon="-9.25852"><ele>53.0</ele></trkpt>
   <trkpt lat="38.71324" lon="-9.25841"><ele>52.6</ele></trkpt>
   <trkpt lat="38.71326" lon="-9.25806"><ele>50.2</ele></trkpt>
   <trkpt lat="38.71327" lon="-9.25768"><ele>49.0</ele></trkpt>
   <trkpt lat="38.71327" lon="-9.25731"><ele>47.4</ele></trkpt>
   <trkpt lat="38.71328" lon="-9.25692"><ele>46.2</ele></trkpt>
   <trkpt lat="38.71328" lon="-9.25647"><ele>43.2</ele></trkpt>
   <trkpt lat="38.71326" lon="-9.25634"><ele>42.4</ele></trkpt>
   <trkpt lat="38.71313" lon="-9.25618"><ele>41.8</ele></trkpt>
   <trkpt lat="38.71297" lon="-9.25620"><ele>41.6</ele></trkpt>
   <trkpt lat="38.71267" lon="-9.25644"><ele>39.8</ele></trkpt>
   <trkpt lat="38.71242" lon="-9.25664"><ele>38.6</ele></trkpt>
   <trkpt lat="38.71225" lon="-9.25675"><ele>37.4</ele></trkpt>
   <trkpt lat="38.71190" lon="-9.25669"><ele>36.8</ele></trkpt>
   <trkpt lat="38.71187" lon="-9.25670"><ele>36.8</ele></trkpt>
   <trkpt lat="38.71157" lon="-9.25692"><ele>36.6</ele></trkpt>
   <trkpt lat="38.71126" lon="-9.25714"><ele>36.6</ele></trkpt>
   <trkpt lat="38.71096" lon="-9.25737"><ele>37.0</ele></trkpt>
   <trkpt lat="38.71091" lon="-9.25741"><ele>37.0</ele></trkpt>
   <trkpt lat="38.71075" lon="-9.25748"><ele>37.0</ele></trkpt>
   <trkpt lat="38.71043" lon="-9.25741"><ele>36.0</ele></trkpt>
   <trkpt lat="38.71008" lon="-9.25735"><ele>30.6</ele></trkpt>
   <trkpt lat="38.71004" lon="-9.25734"><ele>30.2</ele></trkpt>
   <trkpt lat="38.70969" lon="-9.25734"><ele>28.8</ele></trkpt>
   <trkpt lat="38.70936" lon="-9.25732"><ele>28.8</ele></trkpt>
   <trkpt lat="38.70920" lon="-9.25731"><ele>28.8</ele></trkpt>
   <trkpt lat="38.70911" lon="-9.25717"><ele>29.0</ele></trkpt>
   <trkpt lat="38.70911" lon="-9.25678"><ele>29.0</ele></trkpt>
   <trkpt lat="38.70916" lon="-9.25633"><ele>29.2</ele></trkpt>
   <trkpt lat="38.70919" lon="-9.25602"><ele>29.2</ele></trkpt>
   <trkpt lat="38.70918" lon="-9.25560"><ele>29.8</ele></trkpt>
   <trkpt lat="38.70914" lon="-9.25542"><ele>29.6</ele></trkpt>
   <trkpt lat="38.70902" lon="-9.25535"><ele>29.0</ele></trkpt>
   <trkpt lat="38.70867" lon="-9.25532"><ele>28.0</ele></trkpt>
   <trkpt lat="38.70861" lon="-9.25531"><ele>27.8</ele></trkpt>
   <trkpt lat="38.70829" lon="-9.25515"><ele>27.2</ele></trkpt>
   <trkpt lat="38.70800" lon="-9.25496"><ele>27.0</ele></trkpt>
   <trkpt lat="38.70791" lon="-9.25491"><ele>27.0</ele></trkpt>
   <trkpt lat="38.70758" lon="-9.25482"><ele>27.0</ele></trkpt>
   <trkpt lat="38.70743" lon="-9.25470"><ele>27.0</ele></trkpt>
   <trkpt lat="38.70739" lon="-9.25461"><ele>27.0</ele></trkpt>
   <trkpt lat="38.70740" lon="-9.25416"><ele>27.2</ele></trkpt>
   <trkpt lat="38.70741" lon="-9.25376"><ele>27.2</ele></trkpt>
   <trkpt lat="38.70736" lon="-9.25358"><ele>27.8</ele></trkpt>
   <trkpt lat="38.70705" lon="-9.25356"><ele>28.4</ele></trkpt>
   <trkpt lat="38.70674" lon="-9.25356"><ele>28.8</ele></trkpt>
   <trkpt lat="38.70640" lon="-9.25355"><ele>28.6</ele></trkpt>
   <trkpt lat="38.70605" lon="-9.25353"><ele>28.4</ele></trkpt>
   <trkpt lat="38.70574" lon="-9.25353"><ele>28.0</ele></trkpt>
   <trkpt lat="38.70544" lon="-9.25351"><ele>27.8</ele></trkpt>
   <trkpt lat="38.70509" lon="-9.25353"><ele>27.4</ele></trkpt>
   <trkpt lat="38.70475" lon="-9.25351"><ele>26.6</ele></trkpt>
   <trkpt lat="38.70441" lon="-9.25351"><ele>26.0</ele></trkpt>
   <trkpt lat="38.70432" lon="-9.25351"><ele>26.0</ele></trkpt>
   <trkpt lat="38.70404" lon="-9.25328"><ele>26.4</ele></trkpt>
   <trkpt lat="38.70374" lon="-9.25314"><ele>27.2</ele></trkpt>
   <trkpt lat="38.70352" lon="-9.25281"><ele>28.2</ele></trkpt>
   <trkpt lat="38.70343" lon="-9.25271"><ele>28.6</ele></trkpt>
   <trkpt lat="38.70316" lon="-9.25254"><ele>29.8</ele></trkpt>
   <trkpt lat="38.70303" lon="-9.25247"><ele>30.0</ele></trkpt>
   <trkpt lat="38.70275" lon="-9.25223"><ele>28.4</ele></trkpt>
   <trkpt lat="38.70257" lon="-9.25191"><ele>27.2</ele></trkpt>
   <trkpt lat="38.70254" lon="-9.25184"><ele>27.2</ele></trkpt>
   <trkpt lat="38.70240" lon="-9.25170"><ele>27.6</ele></trkpt>
   <trkpt lat="38.70208" lon="-9.25154"><ele>28.2</ele></trkpt>
   <trkpt lat="38.70184" lon="-9.25141"><ele>28.0</ele></trkpt>
   <trkpt lat="38.70164" lon="-9.25139"><ele>27.4</ele></trkpt>
   <trkpt lat="38.70141" lon="-9.25108"><ele>27.4</ele></trkpt>
   <trkpt lat="38.70130" lon="-9.25094"><ele>28.8</ele></trkpt>
   <trkpt lat="38.70119" lon="-9.25052"><ele>30.6</ele></trkpt>
   <trkpt lat="38.70117" lon="-9.25047"><ele>30.8</ele></trkpt>
   <trkpt lat="38.70110" lon="-9.25004"><ele>30.6</ele></trkpt>
   <trkpt lat="38.70102" lon="-9.24963"><ele>29.6</ele></trkpt>
   <trkpt lat="38.70092" lon="-9.24922"><ele>29.8</ele></trkpt>
   <trkpt lat="38.70090" lon="-9.24903"><ele>31.2</ele></trkpt>
   <trkpt lat="38.70072" lon="-9.24869"><ele>31.6</ele></trkpt>
   <trkpt lat="38.70052" lon="-9.24831"><ele>31.4</ele></trkpt>
   <trkpt lat="38.70050" lon="-9.24824"><ele>31.2</ele></trkpt>
   <trkpt lat="38.70044" lon="-9.24783"><ele>30.6</ele></trkpt>
   <trkpt lat="38.70038" lon="-9.24743"><ele>30.0</ele></trkpt>
   <trkpt lat="38.70031" lon="-9.24698"><ele>28.8</ele></trkpt>
   <trkpt lat="38.70025" lon="-9.24657"><ele>28.2</ele></trkpt>
   <trkpt lat="38.70025" lon="-9.24617"><ele>27.6</ele></trkpt>
   <trkpt lat="38.70027" lon="-9.24601"><ele>27.4</ele></trkpt>
   <trkpt lat="38.70041" lon="-9.24560"><ele>26.8</ele></trkpt>
   <trkpt lat="38.70058" lon="-9.24521"><ele>26.0</ele></trkpt>
   <trkpt lat="38.70061" lon="-9.24513"><ele>26.0</ele></trkpt>
   <trkpt lat="38.70069" lon="-9.24471"><ele>25.4</ele></trkpt>
   <trkpt lat="38.70066" lon="-9.24428"><ele>25.2</ele></trkpt>
   <trkpt lat="38.70065" lon="-9.24385"><ele>24.8</ele></trkpt>
   <trkpt lat="38.70063" lon="-9.24343"><ele>24.0</ele></trkpt>
   <trkpt lat="38.70064" lon="-9.24302"><ele>24.0</ele></trkpt>
   <trkpt lat="38.70056" lon="-9.24265"><ele>24.2</ele></trkpt>
   <trkpt lat="38.70050" lon="-9.24226"><ele>24.4</ele></trkpt>
   <trkpt lat="38.70042" lon="-9.24188"><ele>24.2</ele></trkpt>
   <trkpt lat="38.70034" lon="-9.24152"><ele>23.8</ele></trkpt>
   <trkpt lat="38.70028" lon="-9.24114"><ele>24.2</ele></trkpt>
   <trkpt lat="38.70020" lon="-9.24070"><ele>24.2</ele></trkpt>
   <trkpt lat="38.70012" lon="-9.24028"><ele>24.4</ele></trkpt>
   <trkpt lat="38.70007" lon="-9.24006"><ele>24.4</ele></trkpt>
   <trkpt lat="38.69995" lon="-9.23963"><ele>25.0</ele></trkpt>
   <trkpt lat="38.69985" lon="-9.23934"><ele>24.8</ele></trkpt>
   <trkpt lat="38.69966" lon="-9.23896"><ele>24.6</ele></trkpt>
   <trkpt lat="38.69955" lon="-9.23877"><ele>24.4</ele></trkpt>
   <trkpt lat="38.69941" lon="-9.23840"><ele>24.2</ele></trkpt>
   <trkpt lat="38.69939" lon="-9.23833"><ele>24.2</ele></trkpt>
   <trkpt lat="38.69930" lon="-9.23790"><ele>23.8</ele></trkpt>
   <trkpt lat="38.69923" lon="-9.23756"><ele>23.8</ele></trkpt>
   <trkpt lat="38.69918" lon="-9.23713"><ele>24.0</ele></trkpt>
   <trkpt lat="38.69912" lon="-9.23673"><ele>24.2</ele></trkpt>
   <trkpt lat="38.69906" lon="-9.23633"><ele>24.2</ele></trkpt>
   <trkpt lat="38.69902" lon="-9.23625"><ele>24.4</ele></trkpt>
   <trkpt lat="38.69889" lon="-9.23627"><ele>24.2</ele></trkpt>
   <trkpt lat="38.69882" lon="-9.23614"><ele>24.2</ele></trkpt>
   <trkpt lat="38.69877" lon="-9.23572"><ele>24.4</ele></trkpt>
   <trkpt lat="38.69873" lon="-9.23527"><ele>24.6</ele></trkpt>
   <trkpt lat="38.69871" lon="-9.23489"><ele>24.6</ele></trkpt>
   <trkpt lat="38.69870" lon="-9.23473"><ele>24.6</ele></trkpt>
   <trkpt lat="38.69871" lon="-9.23434"><ele>24.6</ele></trkpt>
   <trkpt lat="38.69871" lon="-9.23394"><ele>24.6</ele></trkpt>
   <trkpt lat="38.69871" lon="-9.23354"><ele>25.0</ele></trkpt>
   <trkpt lat="38.69871" lon="-9.23314"><ele>24.8</ele></trkpt>
   <trkpt lat="38.69872" lon="-9.23273"><ele>24.6</ele></trkpt>
   <trkpt lat="38.69873" lon="-9.23234"><ele>24.6</ele></trkpt>
   <trkpt lat="38.69873" lon="-9.23195"><ele>24.6</ele></trkpt>
   <trkpt lat="38.69874" lon="-9.23150"><ele>25.0</ele></trkpt>
   <trkpt lat="38.69874" lon="-9.23128"><ele>25.2</ele></trkpt>
   <trkpt lat="38.69871" lon="-9.23085"><ele>25.4</ele></trkpt>
   <trkpt lat="38.69869" lon="-9.23042"><ele>25.6</ele></trkpt>
   <trkpt lat="38.69867" lon="-9.23020"><ele>25.6</ele></trkpt>
   <trkpt lat="38.69861" lon="-9.22977"><ele>25.8</ele></trkpt>
   <trkpt lat="38.69855" lon="-9.22940"><ele>25.8</ele></trkpt>
   <trkpt lat="38.69851" lon="-9.22917"><ele>25.8</ele></trkpt>
   <trkpt lat="38.69841" lon="-9.22874"><ele>25.6</ele></trkpt>
   <trkpt lat="38.69829" lon="-9.22831"><ele>25.6</ele></trkpt>
   <trkpt lat="38.69818" lon="-9.22788"><ele>25.8</ele></trkpt>
   <trkpt lat="38.69809" lon="-9.22748"><ele>26.0</ele></trkpt>
   <trkpt lat="38.69807" lon="-9.22740"><ele>26.0</ele></trkpt>
   <trkpt lat="38.69793" lon="-9.22705"><ele>26.4</ele></trkpt>
   <trkpt lat="38.69794" lon="-9.22689"><ele>26.4</ele></trkpt>
   <trkpt lat="38.69822" lon="-9.22663"><ele>25.8</ele></trkpt>
   <trkpt lat="38.69841" lon="-9.22642"><ele>25.4</ele></trkpt>
   <trkpt lat="38.69875" lon="-9.22632"><ele>25.8</ele></trkpt>
   <trkpt lat="38.69882" lon="-9.22626"><ele>26.0</ele></trkpt>
   <trkpt lat="38.69897" lon="-9.22590"><ele>26.6</ele></trkpt>
   <trkpt lat="38.69907" lon="-9.22558"><ele>28.6</ele></trkpt>
   <trkpt lat="38.69923" lon="-9.22534"><ele>29.0</ele></trkpt>
   <trkpt lat="38.69939" lon="-9.22495"><ele>30.4</ele></trkpt>
   <trkpt lat="38.69957" lon="-9.22457"><ele>32.4</ele></trkpt>
   <trkpt lat="38.69961" lon="-9.22449"><ele>32.6</ele></trkpt>
   <trkpt lat="38.69976" lon="-9.22409"><ele>34.6</ele></trkpt>
   <trkpt lat="38.69993" lon="-9.22372"><ele>36.4</ele></trkpt>
   <trkpt lat="38.70008" lon="-9.22334"><ele>38.6</ele></trkpt>
   <trkpt lat="38.70024" lon="-9.22297"><ele>40.0</ele></trkpt>
   <trkpt lat="38.70039" lon="-9.22256"><ele>42.4</ele></trkpt>
   <trkpt lat="38.70055" lon="-9.22216"><ele>44.2</ele></trkpt>
   <trkpt lat="38.70072" lon="-9.22176"><ele>46.2</ele></trkpt>
   <trkpt lat="38.70089" lon="-9.22136"><ele>47.8</ele></trkpt>
   <trkpt lat="38.70105" lon="-9.22099"><ele>49.0</ele></trkpt>
   <trkpt lat="38.70121" lon="-9.22062"><ele>50.2</ele></trkpt>
   <trkpt lat="38.70137" lon="-9.22025"><ele>51.4</ele></trkpt>
   <trkpt lat="38.70152" lon="-9.21987"><ele>52.2</ele></trkpt>
   <trkpt lat="38.70167" lon="-9.21951"><ele>53.0</ele></trkpt>
   <trkpt lat="38.70182" lon="-9.21915"><ele>54.8</ele></trkpt>
   <trkpt lat="38.70199" lon="-9.21876"><ele>56.0</ele></trkpt>
   <trkpt lat="38.70215" lon="-9.21839"><ele>56.6</ele></trkpt>
   <trkpt lat="38.70231" lon="-9.21799"><ele>58.0</ele></trkpt>
   <trkpt lat="38.70239" lon="-9.21779"><ele>58.4</ele></trkpt>
   <trkpt lat="38.70260" lon="-9.21748"><ele>59.2</ele></trkpt>
   <trkpt lat="38.70263" lon="-9.21744"><ele>59.4</ele></trkpt>
   <trkpt lat="38.70286" lon="-9.21721"><ele>60.4</ele></trkpt>
   <trkpt lat="38.70314" lon="-9.21702"><ele>61.8</ele></trkpt>
   <trkpt lat="38.70318" lon="-9.21700"><ele>62.0</ele></trkpt>
   <trkpt lat="38.70352" lon="-9.21689"><ele>63.6</ele></trkpt>
   <trkpt lat="38.70359" lon="-9.21686"><ele>64.0</ele></trkpt>
   <trkpt lat="38.70394" lon="-9.21677"><ele>66.2</ele></trkpt>
   <trkpt lat="38.70426" lon="-9.21669"><ele>68.2</ele></trkpt>
   <trkpt lat="38.70459" lon="-9.21659"><ele>70.4</ele></trkpt>
   <trkpt lat="38.70492" lon="-9.21651"><ele>72.8</ele></trkpt>
   <trkpt lat="38.70526" lon="-9.21640"><ele>74.6</ele></trkpt>
   <trkpt lat="38.70559" lon="-9.21631"><ele>76.8</ele></trkpt>
   <trkpt lat="38.70591" lon="-9.21621"><ele>78.8</ele></trkpt>
   <trkpt lat="38.70626" lon="-9.21611"><ele>81.2</ele></trkpt>
   <trkpt lat="38.70658" lon="-9.21601"><ele>83.4</ele></trkpt>
   <trkpt lat="38.70691" lon="-9.21592"><ele>85.8</ele></trkpt>
   <trkpt lat="38.70724" lon="-9.21583"><ele>87.6</ele></trkpt>
   <trkpt lat="38.70757" lon="-9.21573"><ele>89.2</ele></trkpt>
   <trkpt lat="38.70790" lon="-9.21565"><ele>90.8</ele></trkpt>
   <trkpt lat="38.70821" lon="-9.21556"><ele>92.6</ele></trkpt>
   <trkpt lat="38.70854" lon="-9.21546"><ele>94.2</ele></trkpt>
   <trkpt lat="38.70888" lon="-9.21535"><ele>96.2</ele></trkpt>
   <trkpt lat="38.70919" lon="-9.21526"><ele>97.8</ele></trkpt>
   <trkpt lat="38.70954" lon="-9.21517"><ele>99.2</ele></trkpt>
   <trkpt lat="38.70985" lon="-9.21509"><ele>100.6</ele></trkpt>
   <trkpt lat="38.71018" lon="-9.21499"><ele>102.2</ele></trkpt>
   <trkpt lat="38.71050" lon="-9.21489"><ele>103.8</ele></trkpt>
   <trkpt lat="38.71084" lon="-9.21481"><ele>105.6</ele></trkpt>
   <trkpt lat="38.71093" lon="-9.21479"><ele>106.0</ele></trkpt>
   <trkpt lat="38.71108" lon="-9.21470"><ele>107.4</ele></trkpt>
   <trkpt lat="38.71115" lon="-9.21458"><ele>108.4</ele></trkpt>
   <trkpt lat="38.71135" lon="-9.21467"><ele>108.8</ele></trkpt>
   <trkpt lat="38.71167" lon="-9.21454"><ele>109.8</ele></trkpt>
   <trkpt lat="38.71199" lon="-9.21441"><ele>110.4</ele></trkpt>
   <trkpt lat="38.71225" lon="-9.21429"><ele>111.0</ele></trkpt>
   <trkpt lat="38.71254" lon="-9.21410"><ele>111.8</ele></trkpt>
   <trkpt lat="38.71279" lon="-9.21393"><ele>112.2</ele></trkpt>
   <trkpt lat="38.71307" lon="-9.21369"><ele>112.0</ele></trkpt>
   <trkpt lat="38.71323" lon="-9.21355"><ele>112.2</ele></trkpt>
   <trkpt lat="38.71349" lon="-9.21329"><ele>112.2</ele></trkpt>
   <trkpt lat="38.71375" lon="-9.21300"><ele>111.0</ele></trkpt>
   <trkpt lat="38.71399" lon="-9.21269"><ele>110.6</ele></trkpt>
   <trkpt lat="38.71422" lon="-9.21242"><ele>110.4</ele></trkpt>
   <trkpt lat="38.71445" lon="-9.21213"><ele>109.8</ele></trkpt>
   <trkpt lat="38.71469" lon="-9.21184"><ele>109.8</ele></trkpt>
   <trkpt lat="38.71495" lon="-9.21158"><ele>109.6</ele></trkpt>
   <trkpt lat="38.71520" lon="-9.21134"><ele>109.2</ele></trkpt>
   <trkpt lat="38.71548" lon="-9.21106"><ele>109.0</ele></trkpt>
   <trkpt lat="38.71565" lon="-9.21090"><ele>109.2</ele></trkpt>
   <trkpt lat="38.71593" lon="-9.21066"><ele>109.8</ele></trkpt>
   <trkpt lat="38.71609" lon="-9.21054"><ele>110.2</ele></trkpt>
   <trkpt lat="38.71640" lon="-9.21032"><ele>111.0</ele></trkpt>
   <trkpt lat="38.71670" lon="-9.21013"><ele>112.0</ele></trkpt>
   <trkpt lat="38.71677" lon="-9.21009"><ele>112.4</ele></trkpt>
   <trkpt lat="38.71705" lon="-9.20987"><ele>113.6</ele></trkpt>
   <trkpt lat="38.71726" lon="-9.20967"><ele>114.0</ele></trkpt>
   <trkpt lat="38.71756" lon="-9.20948"><ele>115.4</ele></trkpt>
   <trkpt lat="38.71788" lon="-9.20932"><ele>116.2</ele></trkpt>
   <trkpt lat="38.71818" lon="-9.20914"><ele>116.4</ele></trkpt>
   <trkpt lat="38.71822" lon="-9.20912"><ele>116.4</ele></trkpt>
   <trkpt lat="38.71840" lon="-9.20897"><ele>116.8</ele></trkpt>
   <trkpt lat="38.71844" lon="-9.20885"><ele>117.0</ele></trkpt>
   <trkpt lat="38.71839" lon="-9.20870"><ele>117.6</ele></trkpt>
   <trkpt lat="38.71812" lon="-9.20846"><ele>121.6</ele></trkpt>
   <trkpt lat="38.71783" lon="-9.20820"><ele>125.2</ele></trkpt>
   <trkpt lat="38.71755" lon="-9.20793"><ele>128.2</ele></trkpt>
   <trkpt lat="38.71727" lon="-9.20766"><ele>131.8</ele></trkpt>
   <trkpt lat="38.71701" lon="-9.20740"><ele>135.2</ele></trkpt>
   <trkpt lat="38.71674" lon="-9.20712"><ele>139.4</ele></trkpt>
   <trkpt lat="38.71658" lon="-9.20697"><ele>141.0</ele></trkpt>
   <trkpt lat="38.71625" lon="-9.20682"><ele>144.2</ele></trkpt>
   <trkpt lat="38.71619" lon="-9.20677"><ele>144.8</ele></trkpt>
   <trkpt lat="38.71602" lon="-9.20638"><ele>148.0</ele></trkpt>
   <trkpt lat="38.71598" lon="-9.20632"><ele>149.0</ele></trkpt>
   <trkpt lat="38.71572" lon="-9.20603"><ele>151.6</ele></trkpt>
   <trkpt lat="38.71548" lon="-9.20577"><ele>152.2</ele></trkpt>
   <trkpt lat="38.71525" lon="-9.20546"><ele>152.8</ele></trkpt>
   <trkpt lat="38.71501" lon="-9.20518"><ele>153.2</ele></trkpt>
   <trkpt lat="38.71477" lon="-9.20490"><ele>153.2</ele></trkpt>
   <trkpt lat="38.71454" lon="-9.20462"><ele>153.6</ele></trkpt>
   <trkpt lat="38.71429" lon="-9.20432"><ele>154.6</ele></trkpt>
   <trkpt lat="38.71411" lon="-9.20408"><ele>155.6</ele></trkpt>
   <trkpt lat="38.71387" lon="-9.20380"><ele>157.2</ele></trkpt>
   <trkpt lat="38.71364" lon="-9.20355"><ele>158.2</ele></trkpt>
   <trkpt lat="38.71336" lon="-9.20335"><ele>159.4</ele></trkpt>
   <trkpt lat="38.71326" lon="-9.20330"><ele>159.8</ele></trkpt>
   <trkpt lat="38.71319" lon="-9.20316"><ele>159.4</ele></trkpt>
   <trkpt lat="38.71320" lon="-9.20307"><ele>159.4</ele></trkpt>
   <trkpt lat="38.71330" lon="-9.20294"><ele>159.4</ele></trkpt>
   <trkpt lat="38.71339" lon="-9.20297"><ele>159.2</ele></trkpt>
   <trkpt lat="38.71347" lon="-9.20321"><ele>159.4</ele></trkpt>
   <trkpt lat="38.71335" lon="-9.20335"><ele>159.4</ele></trkpt>
   <trkpt lat="38.71322" lon="-9.20327"><ele>159.4</ele></trkpt>
   <trkpt lat="38.71304" lon="-9.20299"><ele>159.6</ele></trkpt>
   <trkpt lat="38.71273" lon="-9.20277"><ele>159.4</ele></trkpt>
   <trkpt lat="38.71242" lon="-9.20256"><ele>158.4</ele></trkpt>
   <trkpt lat="38.71227" lon="-9.20244"><ele>158.4</ele></trkpt>
   <trkpt lat="38.71214" lon="-9.20216"><ele>158.2</ele></trkpt>
   <trkpt lat="38.71213" lon="-9.20176"><ele>157.4</ele></trkpt>
   <trkpt lat="38.71214" lon="-9.20170"><ele>157.2</ele></trkpt>
   <trkpt lat="38.71227" lon="-9.20130"><ele>156.0</ele></trkpt>
   <trkpt lat="38.71232" lon="-9.20119"><ele>155.8</ele></trkpt>
   <trkpt lat="38.71253" lon="-9.20089"><ele>155.4</ele></trkpt>
   <trkpt lat="38.71267" lon="-9.20080"><ele>155.2</ele></trkpt>
   <trkpt lat="38.71287" lon="-9.20077"><ele>155.0</ele></trkpt>
   <trkpt lat="38.71320" lon="-9.20084"><ele>156.6</ele></trkpt>
   <trkpt lat="38.71354" lon="-9.20092"><ele>157.4</ele></trkpt>
   <trkpt lat="38.71380" lon="-9.20079"><ele>158.4</ele></trkpt>
   <trkpt lat="38.71410" lon="-9.20099"><ele>158.6</ele></trkpt>
   <trkpt lat="38.71419" lon="-9.20104"><ele>159.2</ele></trkpt>
   <trkpt lat="38.71454" lon="-9.20112"><ele>162.8</ele></trkpt>
   <trkpt lat="38.71464" lon="-9.20115"><ele>163.8</ele></trkpt>
   <trkpt lat="38.71499" lon="-9.20120"><ele>167.0</ele></trkpt>
   <trkpt lat="38.71502" lon="-9.20121"><ele>167.4</ele></trkpt>
   <trkpt lat="38.71535" lon="-9.20121"><ele>170.0</ele></trkpt>
   <trkpt lat="38.71546" lon="-9.20118"><ele>171.0</ele></trkpt>
   <trkpt lat="38.71579" lon="-9.20104"><ele>173.2</ele></trkpt>
   <trkpt lat="38.71582" lon="-9.20103"><ele>173.4</ele></trkpt>
   <trkpt lat="38.71612" lon="-9.20080"><ele>174.2</ele></trkpt>
   <trkpt lat="38.71641" lon="-9.20057"><ele>176.2</ele></trkpt>
   <trkpt lat="38.71662" lon="-9.20041"><ele>176.8</ele></trkpt>
   <trkpt lat="38.71691" lon="-9.20015"><ele>177.6</ele></trkpt>
   <trkpt lat="38.71719" lon="-9.19989"><ele>178.6</ele></trkpt>
   <trkpt lat="38.71747" lon="-9.19965"><ele>180.2</ele></trkpt>
   <trkpt lat="38.71768" lon="-9.19949"><ele>180.8</ele></trkpt>
   <trkpt lat="38.71794" lon="-9.19922"><ele>182.2</ele></trkpt>
   <trkpt lat="38.71814" lon="-9.19900"><ele>182.8</ele></trkpt>
   <trkpt lat="38.71821" lon="-9.19901"><ele>183.0</ele></trkpt>
   <trkpt lat="38.71826" lon="-9.19912"><ele>183.2</ele></trkpt>
   <trkpt lat="38.71817" lon="-9.19955"><ele>184.0</ele></trkpt>
   <trkpt lat="38.71815" lon="-9.19972"><ele>184.0</ele></trkpt>
   <trkpt lat="38.71816" lon="-9.20013"><ele>184.6</ele></trkpt>
   <trkpt lat="38.71817" lon="-9.20018"><ele>184.8</ele></trkpt>
   <trkpt lat="38.71848" lon="-9.20038"><ele>185.2</ele></trkpt>
   <trkpt lat="38.71858" lon="-9.20072"><ele>185.4</ele></trkpt>
   <trkpt lat="38.71891" lon="-9.20084"><ele>185.4</ele></trkpt>
   <trkpt lat="38.71918" lon="-9.20074"><ele>185.0</ele></trkpt>
   <trkpt lat="38.71944" lon="-9.20049"><ele>184.8</ele></trkpt>
   <trkpt lat="38.71968" lon="-9.20027"><ele>183.6</ele></trkpt>
   <trkpt lat="38.71993" lon="-9.20007"><ele>182.8</ele></trkpt>
   <trkpt lat="38.72019" lon="-9.19989"><ele>181.8</ele></trkpt>
   <trkpt lat="38.72048" lon="-9.19978"><ele>180.4</ele></trkpt>
   <trkpt lat="38.72078" lon="-9.19968"><ele>177.6</ele></trkpt>
   <trkpt lat="38.72111" lon="-9.19958"><ele>176.6</ele></trkpt>
   <trkpt lat="38.72139" lon="-9.19948"><ele>175.4</ele></trkpt>
   <trkpt lat="38.72168" lon="-9.19938"><ele>174.6</ele></trkpt>
   <trkpt lat="38.72201" lon="-9.19928"><ele>172.0</ele></trkpt>
   <trkpt lat="38.72225" lon="-9.19922"><ele>169.4</ele></trkpt>
   <trkpt lat="38.72250" lon="-9.19918"><ele>167.8</ele></trkpt>
   <trkpt lat="38.72275" lon="-9.19918"><ele>164.8</ele></trkpt>
   <trkpt lat="38.72308" lon="-9.19922"><ele>162.2</ele></trkpt>
   <trkpt lat="38.72339" lon="-9.19923"><ele>159.0</ele></trkpt>
   <trkpt lat="38.72371" lon="-9.19925"><ele>158.0</ele></trkpt>
   <trkpt lat="38.72400" lon="-9.19927"><ele>157.6</ele></trkpt>
   <trkpt lat="38.72431" lon="-9.19929"><ele>157.2</ele></trkpt>
   <trkpt lat="38.72462" lon="-9.19931"><ele>156.8</ele></trkpt>
   <trkpt lat="38.72495" lon="-9.19934"><ele>156.4</ele></trkpt>
   <trkpt lat="38.72527" lon="-9.19936"><ele>156.0</ele></trkpt>
   <trkpt lat="38.72560" lon="-9.19939"><ele>156.2</ele></trkpt>
   <trkpt lat="38.72592" lon="-9.19938"><ele>156.0</ele></trkpt>
   <trkpt lat="38.72608" lon="-9.19940"><ele>156.0</ele></trkpt>
   <trkpt lat="38.72639" lon="-9.19953"><ele>155.8</ele></trkpt>
   <trkpt lat="38.72662" lon="-9.19966"><ele>155.4</ele></trkpt>
   <trkpt lat="38.72691" lon="-9.19991"><ele>155.0</ele></trkpt>
   <trkpt lat="38.72715" lon="-9.20025"><ele>154.2</ele></trkpt>
   <trkpt lat="38.72724" lon="-9.20041"><ele>154.0</ele></trkpt>
   <trkpt lat="38.72740" lon="-9.20078"><ele>153.2</ele></trkpt>
   <trkpt lat="38.72744" lon="-9.20087"><ele>153.0</ele></trkpt>
   <trkpt lat="38.72756" lon="-9.20130"><ele>152.2</ele></trkpt>
   <trkpt lat="38.72758" lon="-9.20140"><ele>151.8</ele></trkpt>
   <trkpt lat="38.72761" lon="-9.20183"><ele>150.8</ele></trkpt>
   <trkpt lat="38.72760" lon="-9.20206"><ele>149.6</ele></trkpt>
   <trkpt lat="38.72751" lon="-9.20250"><ele>148.6</ele></trkpt>
   <trkpt lat="38.72743" lon="-9.20284"><ele>147.4</ele></trkpt>
   <trkpt lat="38.72736" lon="-9.20318"><ele>146.6</ele></trkpt>
   <trkpt lat="38.72728" lon="-9.20352"><ele>145.6</ele></trkpt>
   <trkpt lat="38.72723" lon="-9.20396"><ele>144.8</ele></trkpt>
   <trkpt lat="38.72732" lon="-9.20426"><ele>143.4</ele></trkpt>
   <trkpt lat="38.72744" lon="-9.20440"><ele>143.0</ele></trkpt>
   <trkpt lat="38.72759" lon="-9.20449"><ele>142.6</ele></trkpt>
   <trkpt lat="38.72790" lon="-9.20448"><ele>142.0</ele></trkpt>
   <trkpt lat="38.72820" lon="-9.20439"><ele>141.6</ele></trkpt>
   <trkpt lat="38.72850" lon="-9.20432"><ele>141.2</ele></trkpt>
   <trkpt lat="38.72884" lon="-9.20423"><ele>141.0</ele></trkpt>
   <trkpt lat="38.72917" lon="-9.20416"><ele>141.4</ele></trkpt>
   <trkpt lat="38.72949" lon="-9.20406"><ele>141.4</ele></trkpt>
   <trkpt lat="38.72980" lon="-9.20399"><ele>141.4</ele></trkpt>
   <trkpt lat="38.73010" lon="-9.20392"><ele>141.4</ele></trkpt>
   <trkpt lat="38.73045" lon="-9.20382"><ele>141.6</ele></trkpt>
   <trkpt lat="38.73068" lon="-9.20377"><ele>141.8</ele></trkpt>
   <trkpt lat="38.73100" lon="-9.20367"><ele>142.0</ele></trkpt>
   <trkpt lat="38.73131" lon="-9.20357"><ele>142.2</ele></trkpt>
   <trkpt lat="38.73163" lon="-9.20346"><ele>142.2</ele></trkpt>
   <trkpt lat="38.73194" lon="-9.20336"><ele>142.2</ele></trkpt>
   <trkpt lat="38.73224" lon="-9.20323"><ele>142.2</ele></trkpt>
   <trkpt lat="38.73245" lon="-9.20317"><ele>142.2</ele></trkpt>
   <trkpt lat="38.73275" lon="-9.20303"><ele>142.4</ele></trkpt>
   <trkpt lat="38.73308" lon="-9.20288"><ele>142.4</ele></trkpt>
   <trkpt lat="38.73336" lon="-9.20275"><ele>142.0</ele></trkpt>
   <trkpt lat="38.73367" lon="-9.20257"><ele>142.2</ele></trkpt>
   <trkpt lat="38.73399" lon="-9.20240"><ele>142.2</ele></trkpt>
   <trkpt lat="38.73432" lon="-9.20223"><ele>142.2</ele></trkpt>
   <trkpt lat="38.73464" lon="-9.20206"><ele>141.4</ele></trkpt>
   <trkpt lat="38.73497" lon="-9.20188"><ele>140.8</ele></trkpt>
   <trkpt lat="38.73526" lon="-9.20173"><ele>141.0</ele></trkpt>
   <trkpt lat="38.73559" lon="-9.20156"><ele>141.4</ele></trkpt>
   <trkpt lat="38.73590" lon="-9.20142"><ele>141.4</ele></trkpt>
   <trkpt lat="38.73607" lon="-9.20132"><ele>141.2</ele></trkpt>
   <trkpt lat="38.73623" lon="-9.20110"><ele>141.0</ele></trkpt>
   <trkpt lat="38.73658" lon="-9.20106"><ele>140.8</ele></trkpt>
   <trkpt lat="38.73664" lon="-9.20104"><ele>140.8</ele></trkpt>
   <trkpt lat="38.73695" lon="-9.20090"><ele>140.6</ele></trkpt>
   <trkpt lat="38.73728" lon="-9.20073"><ele>140.0</ele></trkpt>
   <trkpt lat="38.73754" lon="-9.20050"><ele>140.2</ele></trkpt>
   <trkpt lat="38.73781" lon="-9.20026"><ele>140.6</ele></trkpt>
   <trkpt lat="38.73799" lon="-9.20010"><ele>140.8</ele></trkpt>
   <trkpt lat="38.73824" lon="-9.19982"><ele>141.2</ele></trkpt>
   <trkpt lat="38.73848" lon="-9.19948"><ele>142.0</ele></trkpt>
   <trkpt lat="38.73850" lon="-9.19946"><ele>142.2</ele></trkpt>
   <trkpt lat="38.73870" lon="-9.19913"><ele>145.0</ele></trkpt>
   <trkpt lat="38.73889" lon="-9.19877"><ele>147.8</ele></trkpt>
   <trkpt lat="38.73891" lon="-9.19874"><ele>147.8</ele></trkpt>
   <trkpt lat="38.73906" lon="-9.19836"><ele>150.8</ele></trkpt>
   <trkpt lat="38.73920" lon="-9.19795"><ele>153.2</ele></trkpt>
   <trkpt lat="38.73935" lon="-9.19754"><ele>156.2</ele></trkpt>
   <trkpt lat="38.73942" lon="-9.19738"><ele>157.2</ele></trkpt>
   <trkpt lat="38.73964" lon="-9.19712"><ele>159.2</ele></trkpt>
   <trkpt lat="38.73994" lon="-9.19689"><ele>161.4</ele></trkpt>
   <trkpt lat="38.74005" lon="-9.19681"><ele>162.0</ele></trkpt>
   <trkpt lat="38.74027" lon="-9.19646"><ele>163.8</ele></trkpt>
   <trkpt lat="38.74032" lon="-9.19637"><ele>164.0</ele></trkpt>
   <trkpt lat="38.74039" lon="-9.19608"><ele>164.8</ele></trkpt>
   <trkpt lat="38.74037" lon="-9.19566"><ele>166.4</ele></trkpt>
   <trkpt lat="38.74035" lon="-9.19552"><ele>166.6</ele></trkpt>
   <trkpt lat="38.74018" lon="-9.19516"><ele>168.2</ele></trkpt>
   <trkpt lat="38.73994" lon="-9.19483"><ele>170.0</ele></trkpt>
   <trkpt lat="38.73989" lon="-9.19475"><ele>170.4</ele></trkpt>
   <trkpt lat="38.73977" lon="-9.19432"><ele>171.8</ele></trkpt>
   <trkpt lat="38.73981" lon="-9.19397"><ele>173.2</ele></trkpt>
   <trkpt lat="38.73996" lon="-9.19356"><ele>175.2</ele></trkpt>
   <trkpt lat="38.74012" lon="-9.19317"><ele>177.0</ele></trkpt>
   <trkpt lat="38.74015" lon="-9.19308"><ele>177.2</ele></trkpt>
   <trkpt lat="38.74020" lon="-9.19280"><ele>178.0</ele></trkpt>
   <trkpt lat="38.74021" lon="-9.19248"><ele>179.2</ele></trkpt>
   <trkpt lat="38.74009" lon="-9.19208"><ele>180.4</ele></trkpt>
   <trkpt lat="38.74005" lon="-9.19189"><ele>180.8</ele></trkpt>
   <trkpt lat="38.74004" lon="-9.19145"><ele>182.4</ele></trkpt>
   <trkpt lat="38.74008" lon="-9.19113"><ele>183.2</ele></trkpt>
   <trkpt lat="38.74022" lon="-9.19071"><ele>184.6</ele></trkpt>
   <trkpt lat="38.74027" lon="-9.19060"><ele>185.2</ele></trkpt>
   <trkpt lat="38.74054" lon="-9.19032"><ele>185.8</ele></trkpt>
   <trkpt lat="38.74081" lon="-9.19012"><ele>186.6</ele></trkpt>
   <trkpt lat="38.74096" lon="-9.18994"><ele>186.8</ele></trkpt>
   <trkpt lat="38.74113" lon="-9.18959"><ele>186.4</ele></trkpt>
   <trkpt lat="38.74127" lon="-9.18919"><ele>184.8</ele></trkpt>
   <trkpt lat="38.74131" lon="-9.18908"><ele>184.6</ele></trkpt>
   <trkpt lat="38.74137" lon="-9.18868"><ele>183.2</ele></trkpt>
   <trkpt lat="38.74139" lon="-9.18854"><ele>182.4</ele></trkpt>
   <trkpt lat="38.74139" lon="-9.18823"><ele>181.6</ele></trkpt>
   <trkpt lat="38.74136" lon="-9.18792"><ele>180.0</ele></trkpt>
   <trkpt lat="38.74130" lon="-9.18761"><ele>178.0</ele></trkpt>
   <trkpt lat="38.74126" lon="-9.18746"><ele>176.2</ele></trkpt>
   <trkpt lat="38.74114" lon="-9.18719"><ele>174.2</ele></trkpt>
   <trkpt lat="38.74096" lon="-9.18683"><ele>173.0</ele></trkpt>
   <trkpt lat="38.74082" lon="-9.18651"><ele>172.0</ele></trkpt>
   <trkpt lat="38.74063" lon="-9.18613"><ele>170.2</ele></trkpt>
   <trkpt lat="38.74046" lon="-9.18593"><ele>169.4</ele></trkpt>
   <trkpt lat="38.74027" lon="-9.18580"><ele>168.8</ele></trkpt>
   <trkpt lat="38.74000" lon="-9.18574"><ele>168.4</ele></trkpt>
   <trkpt lat="38.73974" lon="-9.18584"><ele>168.4</ele></trkpt>
   <trkpt lat="38.73948" lon="-9.18613"><ele>168.6</ele></trkpt>
   <trkpt lat="38.73927" lon="-9.18634"><ele>168.6</ele></trkpt>
   <trkpt lat="38.73909" lon="-9.18646"><ele>168.4</ele></trkpt>
   <trkpt lat="38.73890" lon="-9.18651"><ele>168.0</ele></trkpt>
   <trkpt lat="38.73871" lon="-9.18647"><ele>167.8</ele></trkpt>
   <trkpt lat="38.73855" lon="-9.18636"><ele>167.6</ele></trkpt>
   <trkpt lat="38.73833" lon="-9.18606"><ele>167.4</ele></trkpt>
   <trkpt lat="38.73825" lon="-9.18593"><ele>167.4</ele></trkpt>
   <trkpt lat="38.73809" lon="-9.18559"><ele>167.0</ele></trkpt>
   <trkpt lat="38.73793" lon="-9.18525"><ele>166.8</ele></trkpt>
   <trkpt lat="38.73777" lon="-9.18490"><ele>167.0</ele></trkpt>
   <trkpt lat="38.73759" lon="-9.18452"><ele>166.4</ele></trkpt>
   <trkpt lat="38.73742" lon="-9.18416"><ele>166.0</ele></trkpt>
   <trkpt lat="38.73726" lon="-9.18381"><ele>165.6</ele></trkpt>
   <trkpt lat="38.73707" lon="-9.18342"><ele>164.6</ele></trkpt>
   <trkpt lat="38.73690" lon="-9.18305"><ele>162.6</ele></trkpt>
   <trkpt lat="38.73685" lon="-9.18295"><ele>162.4</ele></trkpt>
   <trkpt lat="38.73673" lon="-9.18264"><ele>161.8</ele></trkpt>
   <trkpt lat="38.73663" lon="-9.18229"><ele>159.4</ele></trkpt>
   <trkpt lat="38.73656" lon="-9.18206"><ele>158.0</ele></trkpt>
   <trkpt lat="38.73639" lon="-9.18171"><ele>154.8</ele></trkpt>
   <trkpt lat="38.73634" lon="-9.18133"><ele>152.6</ele></trkpt>
   <trkpt lat="38.73629" lon="-9.18104"><ele>151.2</ele></trkpt>
   <trkpt lat="38.73617" lon="-9.18067"><ele>149.6</ele></trkpt>
   <trkpt lat="38.73607" lon="-9.18029"><ele>147.8</ele></trkpt>
   <trkpt lat="38.73594" lon="-9.17987"><ele>147.0</ele></trkpt>
   <trkpt lat="38.73583" lon="-9.17952"><ele>146.8</ele></trkpt>
   <trkpt lat="38.73575" lon="-9.17926"><ele>147.0</ele></trkpt>
   <trkpt lat="38.73564" lon="-9.17883"><ele>146.8</ele></trkpt>
   <trkpt lat="38.73554" lon="-9.17844"><ele>146.6</ele></trkpt>
   <trkpt lat="38.73542" lon="-9.17803"><ele>146.0</ele></trkpt>
   <trkpt lat="38.73530" lon="-9.17762"><ele>145.8</ele></trkpt>
   <trkpt lat="38.73520" lon="-9.17726"><ele>145.2</ele></trkpt>
   <trkpt lat="38.73510" lon="-9.17687"><ele>144.2</ele></trkpt>
   <trkpt lat="38.73498" lon="-9.17647"><ele>142.8</ele></trkpt>
   <trkpt lat="38.73486" lon="-9.17606"><ele>141.8</ele></trkpt>
   <trkpt lat="38.73476" lon="-9.17569"><ele>141.0</ele></trkpt>
   <trkpt lat="38.73470" lon="-9.17545"><ele>140.8</ele></trkpt>
   <trkpt lat="38.73459" lon="-9.17509"><ele>140.8</ele></trkpt>
   <trkpt lat="38.73447" lon="-9.17472"><ele>141.0</ele></trkpt>
   <trkpt lat="38.73443" lon="-9.17457"><ele>141.0</ele></trkpt>
   <trkpt lat="38.73420" lon="-9.17425"><ele>141.0</ele></trkpt>
   <trkpt lat="38.73404" lon="-9.17420"><ele>140.8</ele></trkpt>
   <trkpt lat="38.73387" lon="-9.17423"><ele>140.8</ele></trkpt>
   <trkpt lat="38.73357" lon="-9.17444"><ele>140.8</ele></trkpt>
   <trkpt lat="38.73347" lon="-9.17452"><ele>140.8</ele></trkpt>
   <trkpt lat="38.73318" lon="-9.17478"><ele>141.0</ele></trkpt>
   <trkpt lat="38.73293" lon="-9.17507"><ele>141.0</ele></trkpt>
   <trkpt lat="38.73274" lon="-9.17543"><ele>141.2</ele></trkpt>
   <trkpt lat="38.73268" lon="-9.17559"><ele>141.6</ele></trkpt>
   <trkpt lat="38.73263" lon="-9.17599"><ele>142.4</ele></trkpt>
   <trkpt lat="38.73262" lon="-9.17625"><ele>142.8</ele></trkpt>
   <trkpt lat="38.73271" lon="-9.17666"><ele>144.2</ele></trkpt>
   <trkpt lat="38.73279" lon="-9.17709"><ele>145.8</ele></trkpt>
   <trkpt lat="38.73289" lon="-9.17751"><ele>147.2</ele></trkpt>
   <trkpt lat="38.73292" lon="-9.17796"><ele>148.4</ele></trkpt>
   <trkpt lat="38.73292" lon="-9.17800"><ele>148.4</ele></trkpt>
   <trkpt lat="38.73283" lon="-9.17839"><ele>148.6</ele></trkpt>
   <trkpt lat="38.73272" lon="-9.17878"><ele>149.4</ele></trkpt>
   <trkpt lat="38.73271" lon="-9.17883"><ele>149.4</ele></trkpt>
   <trkpt lat="38.73257" lon="-9.17921"><ele>149.0</ele></trkpt>
   <trkpt lat="38.73245" lon="-9.17962"><ele>148.8</ele></trkpt>
   <trkpt lat="38.73234" lon="-9.17990"><ele>147.8</ele></trkpt>
   <trkpt lat="38.73228" lon="-9.18013"><ele>147.4</ele></trkpt>
   <trkpt lat="38.73225" lon="-9.18058"><ele>146.8</ele></trkpt>
   <trkpt lat="38.73224" lon="-9.18064"><ele>146.8</ele></trkpt>
   <trkpt lat="38.73217" lon="-9.18082"><ele>147.4</ele></trkpt>
   <trkpt lat="38.73208" lon="-9.18089"><ele>148.0</ele></trkpt>
   <trkpt lat="38.73190" lon="-9.18091"><ele>149.4</ele></trkpt>
   <trkpt lat="38.73172" lon="-9.18080"><ele>150.8</ele></trkpt>
   <trkpt lat="38.73147" lon="-9.18051"><ele>152.6</ele></trkpt>
   <trkpt lat="38.73125" lon="-9.18027"><ele>154.4</ele></trkpt>
   <trkpt lat="38.73092" lon="-9.18019"><ele>156.4</ele></trkpt>
   <trkpt lat="38.73080" lon="-9.18019"><ele>157.2</ele></trkpt>
   <trkpt lat="38.73060" lon="-9.18027"><ele>159.0</ele></trkpt>
   <trkpt lat="38.73045" lon="-9.18041"><ele>160.4</ele></trkpt>
   <trkpt lat="38.73025" lon="-9.18072"><ele>163.6</ele></trkpt>
   <trkpt lat="38.73012" lon="-9.18113"><ele>167.4</ele></trkpt>
   <trkpt lat="38.73010" lon="-9.18118"><ele>167.8</ele></trkpt>
   <trkpt lat="38.72996" lon="-9.18134"><ele>169.2</ele></trkpt>
   <trkpt lat="38.72975" lon="-9.18142"><ele>171.4</ele></trkpt>
   <trkpt lat="38.72956" lon="-9.18135"><ele>172.6</ele></trkpt>
   <trkpt lat="38.72931" lon="-9.18104"><ele>175.2</ele></trkpt>
   <trkpt lat="38.72906" lon="-9.18074"><ele>176.2</ele></trkpt>
   <trkpt lat="38.72903" lon="-9.18071"><ele>176.2</ele></trkpt>
   <trkpt lat="38.72882" lon="-9.18040"><ele>176.8</ele></trkpt>
   <trkpt lat="38.72877" lon="-9.18032"><ele>176.8</ele></trkpt>
   <trkpt lat="38.72858" lon="-9.18018"><ele>177.4</ele></trkpt>
   <trkpt lat="38.72824" lon="-9.18015"><ele>177.4</ele></trkpt>
   <trkpt lat="38.72793" lon="-9.18016"><ele>177.8</ele></trkpt>
   <trkpt lat="38.72784" lon="-9.18016"><ele>177.8</ele></trkpt>
   <trkpt lat="38.72765" lon="-9.18022"><ele>178.0</ele></trkpt>
   <trkpt lat="38.72745" lon="-9.18044"><ele>179.4</ele></trkpt>
   <trkpt lat="38.72737" lon="-9.18068"><ele>180.6</ele></trkpt>
   <trkpt lat="38.72737" lon="-9.18093"><ele>182.0</ele></trkpt>
   <trkpt lat="38.72743" lon="-9.18112"><ele>183.4</ele></trkpt>
   <trkpt lat="38.72766" lon="-9.18144"><ele>186.0</ele></trkpt>
   <trkpt lat="38.72789" lon="-9.18178"><ele>188.2</ele></trkpt>
   <trkpt lat="38.72811" lon="-9.18210"><ele>190.0</ele></trkpt>
   <trkpt lat="38.72832" lon="-9.18241"><ele>192.8</ele></trkpt>
   <trkpt lat="38.72841" lon="-9.18255"><ele>194.0</ele></trkpt>
   <trkpt lat="38.72847" lon="-9.18279"><ele>195.6</ele></trkpt>
   <trkpt lat="38.72845" lon="-9.18302"><ele>197.0</ele></trkpt>
   <trkpt lat="38.72839" lon="-9.18316"><ele>197.8</ele></trkpt>
   <trkpt lat="38.72815" lon="-9.18345"><ele>201.4</ele></trkpt>
   <trkpt lat="38.72799" lon="-9.18362"><ele>203.6</ele></trkpt>
   <trkpt lat="38.72783" lon="-9.18402"><ele>207.2</ele></trkpt>
   <trkpt lat="38.72788" lon="-9.18437"><ele>209.4</ele></trkpt>
   <trkpt lat="38.72807" lon="-9.18472"><ele>212.2</ele></trkpt>
   <trkpt lat="38.72827" lon="-9.18508"><ele>213.6</ele></trkpt>
   <trkpt lat="38.72838" lon="-9.18549"><ele>215.2</ele></trkpt>
   <trkpt lat="38.72832" lon="-9.18585"><ele>217.0</ele></trkpt>
   <trkpt lat="38.72810" lon="-9.18619"><ele>217.6</ele></trkpt>
   <trkpt lat="38.72801" lon="-9.18637"><ele>217.8</ele></trkpt>
   <trkpt lat="38.72798" lon="-9.18672"><ele>218.0</ele></trkpt>
   <trkpt lat="38.72811" lon="-9.18702"><ele>218.0</ele></trkpt>
   <trkpt lat="38.72836" lon="-9.18726"><ele>217.6</ele></trkpt>
   <trkpt lat="38.72861" lon="-9.18748"><ele>217.0</ele></trkpt>
   <trkpt lat="38.72881" lon="-9.18769"><ele>216.0</ele></trkpt>
   <trkpt lat="38.72891" lon="-9.18788"><ele>215.4</ele></trkpt>
   <trkpt lat="38.72893" lon="-9.18811"><ele>214.8</ele></trkpt>
   <trkpt lat="38.72884" lon="-9.18845"><ele>212.8</ele></trkpt>
   <trkpt lat="38.72872" lon="-9.18877"><ele>211.6</ele></trkpt>
   <trkpt lat="38.72868" lon="-9.18887"><ele>211.6</ele></trkpt>
   <trkpt lat="38.72852" lon="-9.18916"><ele>210.8</ele></trkpt>
   <trkpt lat="38.72837" lon="-9.18928"><ele>209.8</ele></trkpt>
   <trkpt lat="38.72820" lon="-9.18933"><ele>209.4</ele></trkpt>
   <trkpt lat="38.72804" lon="-9.18929"><ele>208.8</ele></trkpt>
   <trkpt lat="38.72773" lon="-9.18911"><ele>208.0</ele></trkpt>
   <trkpt lat="38.72743" lon="-9.18890"><ele>207.4</ele></trkpt>
   <trkpt lat="38.72736" lon="-9.18885"><ele>207.2</ele></trkpt>
   <trkpt lat="38.72706" lon="-9.18868"><ele>206.6</ele></trkpt>
   <trkpt lat="38.72683" lon="-9.18859"><ele>205.8</ele></trkpt>
   <trkpt lat="38.72662" lon="-9.18868"><ele>205.4</ele></trkpt>
   <trkpt lat="38.72653" lon="-9.18884"><ele>205.2</ele></trkpt>
   <trkpt lat="38.72650" lon="-9.18903"><ele>205.0</ele></trkpt>
   <trkpt lat="38.72653" lon="-9.18923"><ele>205.0</ele></trkpt>
   <trkpt lat="38.72668" lon="-9.18944"><ele>204.8</ele></trkpt>
   <trkpt lat="38.72681" lon="-9.18951"><ele>204.6</ele></trkpt>
   <trkpt lat="38.72711" lon="-9.18956"><ele>204.2</ele></trkpt>
   <trkpt lat="38.72741" lon="-9.18962"><ele>204.0</ele></trkpt>
   <trkpt lat="38.72765" lon="-9.18968"><ele>204.0</ele></trkpt>
   <trkpt lat="38.72797" lon="-9.18984"><ele>205.6</ele></trkpt>
   <trkpt lat="38.72804" lon="-9.18987"><ele>205.8</ele></trkpt>
   <trkpt lat="38.72829" lon="-9.19008"><ele>207.4</ele></trkpt>
   <trkpt lat="38.72852" lon="-9.19040"><ele>209.6</ele></trkpt>
   <trkpt lat="38.72857" lon="-9.19048"><ele>209.6</ele></trkpt>
   <trkpt lat="38.72873" lon="-9.19059"><ele>210.2</ele></trkpt>
   <trkpt lat="38.72903" lon="-9.19038"><ele>212.8</ele></trkpt>
   <trkpt lat="38.72930" lon="-9.19020"><ele>214.6</ele></trkpt>
   <trkpt lat="38.72963" lon="-9.19006"><ele>217.8</ele></trkpt>
   <trkpt lat="38.72981" lon="-9.18999"><ele>219.2</ele></trkpt>
   <trkpt lat="38.73016" lon="-9.18995"><ele>221.4</ele></trkpt>
   <trkpt lat="38.73051" lon="-9.18990"><ele>223.8</ele></trkpt>
   <trkpt lat="38.73086" lon="-9.18986"><ele>225.6</ele></trkpt>
   <trkpt lat="38.73119" lon="-9.18982"><ele>227.2</ele></trkpt>
   <trkpt lat="38.73154" lon="-9.18978"><ele>228.4</ele></trkpt>
   <trkpt lat="38.73188" lon="-9.18975"><ele>228.8</ele></trkpt>
   <trkpt lat="38.73220" lon="-9.18972"><ele>229.6</ele></trkpt>
   <trkpt lat="38.73254" lon="-9.18968"><ele>231.0</ele></trkpt>
   <trkpt lat="38.73288" lon="-9.18965"><ele>231.4</ele></trkpt>
   <trkpt lat="38.73320" lon="-9.18961"><ele>232.2</ele></trkpt>
   <trkpt lat="38.73330" lon="-9.18957"><ele>232.2</ele></trkpt>
   <trkpt lat="38.73332" lon="-9.18949"><ele>232.4</ele></trkpt>
   <trkpt lat="38.73329" lon="-9.18904"><ele>232.2</ele></trkpt>
   <trkpt lat="38.73329" lon="-9.18861"><ele>231.6</ele></trkpt>
   <trkpt lat="38.73329" lon="-9.18815"><ele>230.4</ele></trkpt>
   <trkpt lat="38.73330" lon="-9.18771"><ele>228.8</ele></trkpt>
   <trkpt lat="38.73330" lon="-9.18733"><ele>227.6</ele></trkpt>
   <trkpt lat="38.73330" lon="-9.18692"><ele>225.8</ele></trkpt>
   <trkpt lat="38.73331" lon="-9.18651"><ele>223.8</ele></trkpt>
   <trkpt lat="38.73331" lon="-9.18610"><ele>222.0</ele></trkpt>
   <trkpt lat="38.73331" lon="-9.18568"><ele>219.8</ele></trkpt>
   <trkpt lat="38.73332" lon="-9.18526"><ele>216.8</ele></trkpt>
   <trkpt lat="38.73333" lon="-9.18483"><ele>214.4</ele></trkpt>
   <trkpt lat="38.73334" lon="-9.18439"><ele>212.2</ele></trkpt>
   <trkpt lat="38.73334" lon="-9.18408"><ele>210.2</ele></trkpt>
   <trkpt lat="38.73334" lon="-9.18375"><ele>208.8</ele></trkpt>
   <trkpt lat="38.73334" lon="-9.18341"><ele>206.4</ele></trkpt>
   <trkpt lat="38.73334" lon="-9.18323"><ele>204.8</ele></trkpt>
   <trkpt lat="38.73336" lon="-9.18297"><ele>202.2</ele></trkpt>
   <trkpt lat="38.73341" lon="-9.18253"><ele>199.6</ele></trkpt>
   <trkpt lat="38.73353" lon="-9.18219"><ele>196.6</ele></trkpt>
   <trkpt lat="38.73362" lon="-9.18204"><ele>195.0</ele></trkpt>
   <trkpt lat="38.73383" lon="-9.18181"><ele>193.2</ele></trkpt>
   <trkpt lat="38.73396" lon="-9.18173"><ele>192.4</ele></trkpt>
   <trkpt lat="38.73423" lon="-9.18163"><ele>188.6</ele></trkpt>
   <trkpt lat="38.73438" lon="-9.18161"><ele>187.4</ele></trkpt>
   <trkpt lat="38.73468" lon="-9.18161"><ele>185.0</ele></trkpt>
   <trkpt lat="38.73498" lon="-9.18163"><ele>181.8</ele></trkpt>
   <trkpt lat="38.73527" lon="-9.18164"><ele>178.6</ele></trkpt>
   <trkpt lat="38.73555" lon="-9.18164"><ele>176.2</ele></trkpt>
   <trkpt lat="38.73589" lon="-9.18166"><ele>171.2</ele></trkpt>
   <trkpt lat="38.73607" lon="-9.18167"><ele>167.4</ele></trkpt>
   <trkpt lat="38.73636" lon="-9.18160"><ele>160.6</ele></trkpt>
   <trkpt lat="38.73654" lon="-9.18157"><ele>158.6</ele></trkpt>
   <trkpt lat="38.73683" lon="-9.18160"><ele>155.8</ele></trkpt>
   <trkpt lat="38.73693" lon="-9.18161"><ele>155.0</ele></trkpt>
   <trkpt lat="38.73727" lon="-9.18155"><ele>152.6</ele></trkpt>
   <trkpt lat="38.73758" lon="-9.18149"><ele>150.2</ele></trkpt>
   <trkpt lat="38.73790" lon="-9.18143"><ele>147.6</ele></trkpt>
   <trkpt lat="38.73818" lon="-9.18145"><ele>144.4</ele></trkpt>
   <trkpt lat="38.73847" lon="-9.18150"><ele>142.6</ele></trkpt>
   <trkpt lat="38.73876" lon="-9.18159"><ele>138.8</ele></trkpt>
   <trkpt lat="38.73905" lon="-9.18169"><ele>135.4</ele></trkpt>
   <trkpt lat="38.73919" lon="-9.18173"><ele>134.6</ele></trkpt>
   <trkpt lat="38.73947" lon="-9.18172"><ele>131.8</ele></trkpt>
   <trkpt lat="38.73974" lon="-9.18163"><ele>128.6</ele></trkpt>
   <trkpt lat="38.73997" lon="-9.18146"><ele>126.0</ele></trkpt>
   <trkpt lat="38.74007" lon="-9.18135"><ele>125.4</ele></trkpt>
   <trkpt lat="38.74023" lon="-9.18109"><ele>123.4</ele></trkpt>
   <trkpt lat="38.74029" lon="-9.18095"><ele>121.6</ele></trkpt>
   <trkpt lat="38.74037" lon="-9.18065"><ele>119.8</ele></trkpt>
   <trkpt lat="38.74043" lon="-9.18033"><ele>117.0</ele></trkpt>
   <trkpt lat="38.74048" lon="-9.18003"><ele>115.4</ele></trkpt>
   <trkpt lat="38.74056" lon="-9.17962"><ele>109.8</ele></trkpt>
   <trkpt lat="38.74061" lon="-9.17929"><ele>106.8</ele></trkpt>
   <trkpt lat="38.74069" lon="-9.17892"><ele>102.8</ele></trkpt>
   <trkpt lat="38.74071" lon="-9.17882"><ele>101.4</ele></trkpt>
   <trkpt lat="38.74088" lon="-9.17842"><ele>95.6</ele></trkpt>
   <trkpt lat="38.74090" lon="-9.17837"><ele>95.4</ele></trkpt>
   <trkpt lat="38.74100" lon="-9.17799"><ele>93.6</ele></trkpt>
   <trkpt lat="38.74099" lon="-9.17789"><ele>90.6</ele></trkpt>
   <trkpt lat="38.74081" lon="-9.17757"><ele>90.0</ele></trkpt>
   <trkpt lat="38.74076" lon="-9.17748"><ele>89.8</ele></trkpt>
   <trkpt lat="38.74056" lon="-9.17714"><ele>90.0</ele></trkpt>
   <trkpt lat="38.74036" lon="-9.17679"><ele>90.0</ele></trkpt>
   <trkpt lat="38.74015" lon="-9.17645"><ele>90.6</ele></trkpt>
   <trkpt lat="38.73994" lon="-9.17609"><ele>91.2</ele></trkpt>
   <trkpt lat="38.73975" lon="-9.17577"><ele>91.2</ele></trkpt>
   <trkpt lat="38.73955" lon="-9.17544"><ele>91.6</ele></trkpt>
   <trkpt lat="38.73936" lon="-9.17510"><ele>92.2</ele></trkpt>
   <trkpt lat="38.73915" lon="-9.17474"><ele>93.0</ele></trkpt>
   <trkpt lat="38.73893" lon="-9.17441"><ele>93.4</ele></trkpt>
   <trkpt lat="38.73881" lon="-9.17422"><ele>93.8</ele></trkpt>
   <trkpt lat="38.73862" lon="-9.17384"><ele>95.2</ele></trkpt>
   <trkpt lat="38.73842" lon="-9.17346"><ele>95.8</ele></trkpt>
   <trkpt lat="38.73836" lon="-9.17338"><ele>95.8</ele></trkpt>
   <trkpt lat="38.73808" lon="-9.17317"><ele>95.6</ele></trkpt>
   <trkpt lat="38.73782" lon="-9.17299"><ele>95.4</ele></trkpt>
   <trkpt lat="38.73753" lon="-9.17280"><ele>95.0</ele></trkpt>
   <trkpt lat="38.73742" lon="-9.17272"><ele>94.8</ele></trkpt>
   <trkpt lat="38.73713" lon="-9.17257"><ele>93.8</ele></trkpt>
   <trkpt lat="38.73682" lon="-9.17242"><ele>92.8</ele></trkpt>
   <trkpt lat="38.73677" lon="-9.17239"><ele>92.4</ele></trkpt>
   <trkpt lat="38.73644" lon="-9.17230"><ele>90.8</ele></trkpt>
   <trkpt lat="38.73630" lon="-9.17224"><ele>90.6</ele></trkpt>
   <trkpt lat="38.73620" lon="-9.17207"><ele>90.4</ele></trkpt>
   <trkpt lat="38.73628" lon="-9.17182"><ele>90.4</ele></trkpt>
   <trkpt lat="38.73648" lon="-9.17165"><ele>90.4</ele></trkpt>
   <trkpt lat="38.73654" lon="-9.17130"><ele>92.0</ele></trkpt>
   <trkpt lat="38.73658" lon="-9.17088"><ele>93.6</ele></trkpt>
   <trkpt lat="38.73660" lon="-9.17044"><ele>94.6</ele></trkpt>
   <trkpt lat="38.73663" lon="-9.17003"><ele>94.6</ele></trkpt>
   <trkpt lat="38.73666" lon="-9.16959"><ele>94.0</ele></trkpt>
   <trkpt lat="38.73667" lon="-9.16913"><ele>93.4</ele></trkpt>
   <trkpt lat="38.73670" lon="-9.16875"><ele>92.8</ele></trkpt>
   <trkpt lat="38.73672" lon="-9.16858"><ele>92.2</ele></trkpt>
   <trkpt lat="38.73669" lon="-9.16818"><ele>90.0</ele></trkpt>
   <trkpt lat="38.73681" lon="-9.16804"><ele>89.4</ele></trkpt>
   <trkpt lat="38.73711" lon="-9.16797"><ele>89.4</ele></trkpt>
   <trkpt lat="38.73726" lon="-9.16791"><ele>89.0</ele></trkpt>
   <trkpt lat="38.73758" lon="-9.16774"><ele>88.4</ele></trkpt>
   <trkpt lat="38.73789" lon="-9.16759"><ele>88.2</ele></trkpt>
   <trkpt lat="38.73801" lon="-9.16754"><ele>88.2</ele></trkpt>
   <trkpt lat="38.73815" lon="-9.16739"><ele>88.2</ele></trkpt>
   <trkpt lat="38.73815" lon="-9.16728"><ele>87.8</ele></trkpt>
   <trkpt lat="38.73800" lon="-9.16697"><ele>87.0</ele></trkpt>
   <trkpt lat="38.73791" lon="-9.16657"><ele>87.6</ele></trkpt>
   <trkpt lat="38.73779" lon="-9.16615"><ele>88.6</ele></trkpt>
   <trkpt lat="38.73767" lon="-9.16575"><ele>89.4</ele></trkpt>
   <trkpt lat="38.73766" lon="-9.16570"><ele>89.6</ele></trkpt>
   <trkpt lat="38.73752" lon="-9.16531"><ele>90.6</ele></trkpt>
   <trkpt lat="38.73740" lon="-9.16491"><ele>91.4</ele></trkpt>
   <trkpt lat="38.73728" lon="-9.16453"><ele>93.0</ele></trkpt>
   <trkpt lat="38.73726" lon="-9.16445"><ele>93.2</ele></trkpt>
   <trkpt lat="38.73743" lon="-9.16432"><ele>94.0</ele></trkpt>
   <trkpt lat="38.73754" lon="-9.16413"><ele>94.4</ele></trkpt>
   <trkpt lat="38.73786" lon="-9.16402"><ele>94.0</ele></trkpt>
   <trkpt lat="38.73819" lon="-9.16388"><ele>91.6</ele></trkpt>
   <trkpt lat="38.73840" lon="-9.16379"><ele>90.4</ele></trkpt>
   <trkpt lat="38.73849" lon="-9.16368"><ele>89.4</ele></trkpt>
   <trkpt lat="38.73846" lon="-9.16326"><ele>88.0</ele></trkpt>
   <trkpt lat="38.73841" lon="-9.16286"><ele>87.6</ele></trkpt>
   <trkpt lat="38.73841" lon="-9.16279"><ele>87.6</ele></trkpt>
   <trkpt lat="38.73833" lon="-9.16240"><ele>88.0</ele></trkpt>
   <trkpt lat="38.73826" lon="-9.16195"><ele>88.6</ele></trkpt>
   <trkpt lat="38.73819" lon="-9.16155"><ele>89.2</ele></trkpt>
   <trkpt lat="38.73818" lon="-9.16136"><ele>89.6</ele></trkpt>
   <trkpt lat="38.73809" lon="-9.16111"><ele>89.8</ele></trkpt>
   <trkpt lat="38.73803" lon="-9.16069"><ele>90.2</ele></trkpt>
   <trkpt lat="38.73797" lon="-9.16029"><ele>91.2</ele></trkpt>
   <trkpt lat="38.73797" lon="-9.16023"><ele>91.6</ele></trkpt>
   <trkpt lat="38.73783" lon="-9.15981"><ele>93.6</ele></trkpt>
   <trkpt lat="38.73791" lon="-9.15960"><ele>93.6</ele></trkpt>
   <trkpt lat="38.73791" lon="-9.15946"><ele>93.8</ele></trkpt>
   <trkpt lat="38.73807" lon="-9.15910"><ele>93.8</ele></trkpt>
   <trkpt lat="38.73824" lon="-9.15874"><ele>94.4</ele></trkpt>
   <trkpt lat="38.73839" lon="-9.15838"><ele>95.2</ele></trkpt>
   <trkpt lat="38.73851" lon="-9.15815"><ele>95.6</ele></trkpt>
   <trkpt lat="38.73861" lon="-9.15778"><ele>96.4</ele></trkpt>
   <trkpt lat="38.73853" lon="-9.15756"><ele>96.6</ele></trkpt>
   <trkpt lat="38.73827" lon="-9.15737"><ele>96.0</ele></trkpt>
   <trkpt lat="38.73796" lon="-9.15716"><ele>94.8</ele></trkpt>
   <trkpt lat="38.73772" lon="-9.15699"><ele>93.6</ele></trkpt>
   <trkpt lat="38.73760" lon="-9.15677"><ele>90.8</ele></trkpt>
   <trkpt lat="38.73732" lon="-9.15654"><ele>90.2</ele></trkpt>
   <trkpt lat="38.73746" lon="-9.15616"><ele>90.4</ele></trkpt>
   <trkpt lat="38.73748" lon="-9.15612"><ele>90.4</ele></trkpt>
   <trkpt lat="38.73765" lon="-9.15593"><ele>90.4</ele></trkpt>
   <trkpt lat="38.73784" lon="-9.15555"><ele>90.4</ele></trkpt>
   <trkpt lat="38.73800" lon="-9.15515"><ele>91.4</ele></trkpt>
   <trkpt lat="38.73817" lon="-9.15476"><ele>91.6</ele></trkpt>
   <trkpt lat="38.73834" lon="-9.15438"><ele>91.6</ele></trkpt>
   <trkpt lat="38.73852" lon="-9.15402"><ele>92.4</ele></trkpt>
   <trkpt lat="38.73869" lon="-9.15362"><ele>92.6</ele></trkpt>
   <trkpt lat="38.73872" lon="-9.15356"><ele>92.6</ele></trkpt>
   <trkpt lat="38.73881" lon="-9.15323"><ele>92.8</ele></trkpt>
   <trkpt lat="38.73876" lon="-9.15304"><ele>93.0</ele></trkpt>
   <trkpt lat="38.73868" lon="-9.15293"><ele>93.0</ele></trkpt>
   <trkpt lat="38.73839" lon="-9.15275"><ele>93.0</ele></trkpt>
   <trkpt lat="38.73830" lon="-9.15269"><ele>93.0</ele></trkpt>
   <trkpt lat="38.73824" lon="-9.15254"><ele>93.0</ele></trkpt>
   <trkpt lat="38.73832" lon="-9.15214"><ele>92.8</ele></trkpt>
   <trkpt lat="38.73837" lon="-9.15174"><ele>93.6</ele></trkpt>
   <trkpt lat="38.73844" lon="-9.15130"><ele>94.6</ele></trkpt>
   <trkpt lat="38.73848" lon="-9.15091"><ele>94.8</ele></trkpt>
   <trkpt lat="38.73855" lon="-9.15049"><ele>95.4</ele></trkpt>
   <trkpt lat="38.73860" lon="-9.15029"><ele>95.6</ele></trkpt>
   <trkpt lat="38.73863" lon="-9.14987"><ele>96.0</ele></trkpt>
   <trkpt lat="38.73877" lon="-9.14953"><ele>96.0</ele></trkpt>
   <trkpt lat="38.73882" lon="-9.14911"><ele>97.0</ele></trkpt>
   <trkpt lat="38.73890" lon="-9.14873"><ele>98.0</ele></trkpt>
   <trkpt lat="38.73886" lon="-9.14835"><ele>98.4</ele></trkpt>
   <trkpt lat="38.73893" lon="-9.14791"><ele>99.0</ele></trkpt>
   <trkpt lat="38.73899" lon="-9.14749"><ele>99.2</ele></trkpt>
   <trkpt lat="38.73908" lon="-9.14709"><ele>99.2</ele></trkpt>
   <trkpt lat="38.73918" lon="-9.14666"><ele>99.6</ele></trkpt>
   <trkpt lat="38.73917" lon="-9.14646"><ele>99.8</ele></trkpt>
   <trkpt lat="38.73905" lon="-9.14631"><ele>100.0</ele></trkpt>
   <trkpt lat="38.73870" lon="-9.14622"><ele>99.8</ele></trkpt>
   <trkpt lat="38.73842" lon="-9.14615"><ele>100.6</ele></trkpt>
   <trkpt lat="38.73830" lon="-9.14618"><ele>100.8</ele></trkpt>
   <trkpt lat="38.73823" lon="-9.14634"><ele>100.8</ele></trkpt>
   <trkpt lat="38.73818" lon="-9.14627"><ele>101.0</ele></trkpt>
   <trkpt lat="38.73824" lon="-9.14588"><ele>101.2</ele></trkpt>
   <trkpt lat="38.73831" lon="-9.14545"><ele>101.0</ele></trkpt>
   <trkpt lat="38.73836" lon="-9.14501"><ele>101.2</ele></trkpt>
   <trkpt lat="38.73836" lon="-9.14496"><ele>101.8</ele></trkpt>
   <trkpt lat="38.73844" lon="-9.14461"><ele>97.6</ele></trkpt>
   <trkpt lat="38.73855" lon="-9.14443"><ele>103.0</ele></trkpt>
   <trkpt lat="38.73858" lon="-9.14399"><ele>103.2</ele></trkpt>
   <trkpt lat="38.73859" lon="-9.14394"><ele>103.0</ele></trkpt>
   <trkpt lat="38.73871" lon="-9.14353"><ele>104.6</ele></trkpt>
   <trkpt lat="38.73883" lon="-9.14316"><ele>103.6</ele></trkpt>
   <trkpt lat="38.73895" lon="-9.14275"><ele>103.4</ele></trkpt>
   <trkpt lat="38.73899" lon="-9.14264"><ele>103.4</ele></trkpt>
   <trkpt lat="38.73904" lon="-9.14223"><ele>103.0</ele></trkpt>
   <trkpt lat="38.73904" lon="-9.14217"><ele>103.0</ele></trkpt>
   <trkpt lat="38.73917" lon="-9.14182"><ele>102.6</ele></trkpt>
   <trkpt lat="38.73931" lon="-9.14147"><ele>103.0</ele></trkpt>
   <trkpt lat="38.73942" lon="-9.14105"><ele>103.2</ele></trkpt>
   <trkpt lat="38.73949" lon="-9.14083"><ele>103.6</ele></trkpt>
   <trkpt lat="38.73948" lon="-9.14064"><ele>103.8</ele></trkpt>
   <trkpt lat="38.73925" lon="-9.14052"><ele>103.8</ele></trkpt>
   <trkpt lat="38.73923" lon="-9.14044"><ele>103.6</ele></trkpt>
   <trkpt lat="38.73937" lon="-9.14002"><ele>104.2</ele></trkpt>
   <trkpt lat="38.73948" lon="-9.13960"><ele>104.6</ele></trkpt>
   <trkpt lat="38.73959" lon="-9.13920"><ele>103.8</ele></trkpt>
   <trkpt lat="38.73973" lon="-9.13880"><ele>103.2</ele></trkpt>
   <trkpt lat="38.73985" lon="-9.13843"><ele>102.6</ele></trkpt>
   <trkpt lat="38.73987" lon="-9.13837"><ele>102.0</ele></trkpt>
   <trkpt lat="38.73992" lon="-9.13800"><ele>100.0</ele></trkpt>
   <trkpt lat="38.73994" lon="-9.13766"><ele>100.0</ele></trkpt>
   <trkpt lat="38.73990" lon="-9.13732"><ele>99.6</ele></trkpt>
   <trkpt lat="38.73979" lon="-9.13731"><ele>99.6</ele></trkpt>
   <trkpt lat="38.73959" lon="-9.13711"><ele>99.4</ele></trkpt>
   <trkpt lat="38.73945" lon="-9.13705"><ele>99.6</ele></trkpt>
   <trkpt lat="38.73914" lon="-9.13699"><ele>100.2</ele></trkpt>
   <trkpt lat="38.73881" lon="-9.13691"><ele>100.8</ele></trkpt>
   <trkpt lat="38.73848" lon="-9.13683"><ele>101.8</ele></trkpt>
   <trkpt lat="38.73817" lon="-9.13677"><ele>102.8</ele></trkpt>
   <trkpt lat="38.73786" lon="-9.13669"><ele>104.0</ele></trkpt>
   <trkpt lat="38.73751" lon="-9.13675"><ele>105.0</ele></trkpt>
   <trkpt lat="38.73719" lon="-9.13664"><ele>105.2</ele></trkpt>
   <trkpt lat="38.73708" lon="-9.13661"><ele>105.0</ele></trkpt>
   <trkpt lat="38.73677" lon="-9.13657"><ele>105.0</ele></trkpt>
   <trkpt lat="38.73659" lon="-9.13654"><ele>105.2</ele></trkpt>
   <trkpt lat="38.73644" lon="-9.13643"><ele>105.2</ele></trkpt>
   <trkpt lat="38.73629" lon="-9.13640"><ele>105.0</ele></trkpt>
   <trkpt lat="38.73610" lon="-9.13643"><ele>104.8</ele></trkpt>
   <trkpt lat="38.73597" lon="-9.13660"><ele>104.6</ele></trkpt>
   <trkpt lat="38.73594" lon="-9.13656"><ele>104.4</ele></trkpt>
   <trkpt lat="38.73627" lon="-9.13644"><ele>105.6</ele></trkpt>
   <trkpt lat="38.73629" lon="-9.13640"><ele>105.4</ele></trkpt>
  </trkseg>
 </trk>
</gpx>
